CLEE,Id,Nombre,Razon_social,Clase_actividad,Estrato,Tipo_vialidad,Calle,Num_Exterior,Num_Interior,Colonia,CP,Ubicacion,Telefono,Correo_e,Sitio_internet,Tipo,Longitud,Latitud,tipo_corredor_industrial,nom_corredor_industrial,numero_local
02001464111001222001000291S9,6285021,FARMACIAS SIMILARES LOMITAS INDECO ENSENADA 6,GOYOMA SA DE CV,Farmacias sin minisúper,0 a 5 personas,BOULEVARD,GERANIOS,182,,A LOMITAS INDECO,22810,"ENSENADA, Ensenada, BAJA CALIFORNIA",,CGEN@GOYOMA.COM,,Fijo,-116.58280350,31.89305633,,,
02002464111006172000000291S9,9305568,FARMACIAS SIMILARES MELICALI 46,GOYOMA SA DE CV,Farmacias sin minisúper,0 a 5 personas,CARRETERA,ESTATAL NUMERO 1,472,6,QUINTA ALCANZAR DETOLEDO,21395,"COLONIA VENUSTIANO CARRANZA (LA CARRANZA), Mexicali, BAJA CALIFORNIA",,CGEN@GOYOMA.COM,,Fijo,-115.16761615,32.23162316,,,
02002464111006431000000291S9,9469773,FARMACIAS SIMILARES MEXICALI 13,GOYOMA SA DE CV,Farmacias sin minisúper,0 a 5 personas,BOULEVARD,GENERAL SANTIAGO VIDAURRI,0,,POPULAR LEANDRO VALLE,,"MEXICALI, Mexicali, BAJA CALIFORNIA",,CGEN@GOYOMA.COM,,Fijo,-115.44050942,32.58695575,,,
02002464111005882000038010S4,9223883,FARMACIAS SIMILARES MEXICALI 14,FRANCORAL SA DE CV,Farmacias sin minisúper,0 a 5 personas,AVENIDA,GUADAMUR,501,1,QUINTA DEL REY,,"MEXICALI, Mexicali, BAJA CALIFORNIA",,QUINTA.DEL.REY@HOTMAIL.COM,,Fijo,-115.47292495,32.58577196,,,
02002464111005792000038010S5,9223874,FARMACIAS SIMILARES MEXICALI 15,FRANCORAL SA DE CV,Farmacias sin minisúper,0 a 5 personas,CALZADA,LICENCIADO VICENTE LOMBARDO TOLEDANO,1101,,AURORA,,"MEXICALI, Mexicali, BAJA CALIFORNIA",,FC103-LOMBARDO@HOTMAIL.COM,,Fijo,-115.47253524,32.61379145,,,
02002464111005802000038010S2,9223875,FARMACIAS SIMILARES MEXICALI 17,FRANCORAL SA DE CV,Farmacias sin minisúper,0 a 5 personas,CALZADA,LAGUNA XOCHIMILCO,1000,12,XOCHIMILCO,,"MEXICALI, Mexicali, BAJA CALIFORNIA",,XOCHIMILCO123@HOTMAIL.COM,,Fijo,-115.47186827,32.60416622,,,
02002464111004201000000291S8,6886326,FARMACIAS SIMILARES MEXICALI 18,GOYOMA SA DE CV,Farmacias sin minisúper,0 a 5 personas,BOULEVARD,LÁZARO CÁRDENAS (NICOLAS BRAVO),2557,2,INFONAVIT VIRREYES,21098,"MEXICALI, Mexicali, BAJA CALIFORNIA",,CGEN@GOYOMA.COM,,Fijo,-115.51496363,32.62158070,,,
02002464111006571000038010S2,9392918,FARMACIAS SIMILARES MEXICALI 19,FRANCORAL SA DE CV,Farmacias sin minisúper,0 a 5 personas,AVENIDA,SANTO TOMÁS,3305,,REAL DEL RIO,,"MEXICALI, Mexicali, BAJA CALIFORNIA",,FH0213-MEXICALI19@HOTMAIL.COM,,Fijo,-115.52981820,32.65068210,,,
02002464111004561000000291S5,6868060,FARMACIAS SIMILARES MEXICALI 2,GOYOMA SA DE CV,Farmacias sin minisúper,0 a 5 personas,AVENIDA,AVENIDA DE LOS JAZMINES,335,,ALAMITOS,21210,"MEXICALI, Mexicali, BAJA CALIFORNIA",,CGEN@GOYOMA.COM,,Fijo,-115.42128284,32.66399589,,,
02002464111004041000000291S8,6778767,FARMACIAS SIMILARES MEXICALI 24,GOYOMA SA DE CV,Farmacias sin minisúper,0 a 5 personas,CALLE,HEROICA DE PUEBLA,110,1,ANGELES DE PUEBLA,21620,"MEXICALI, Mexicali, BAJA CALIFORNIA",,CGEN@GOYOMA.COM,,Fijo,-115.33705302,32.56504343,,,
02002464111003051000000291S8,85378,FARMACIAS SIMILARES MEXICALI 27,GOYOMA SA DE CV,Farmacias sin minisúper,0 a 5 personas,CALLE,PASEO FLORIDA,3898,,VILLA FLORIDA,21395,"MEXICALI, Mexicali, BAJA CALIFORNIA",,CGEN@GOYOMA.COM,,Fijo,-115.36551900,32.60411184,,,
02002464111003981000000291S6,6778809,FARMACIAS SIMILARES MEXICALI 28,GOYOMA SA DE CV,Farmacias sin minisúper,0 a 5 personas,CALZADA,CUAUHTÉMOC (AVIACIÓN),1299,,VISTA HERMOSA,21240,"MEXICALI, Mexicali, BAJA CALIFORNIA",,CGEN@GOYOMA.COM,,Fijo,-115.42420936,32.65886392,,,
02002464111002941000000291S1,79103,FARMACIAS SIMILARES MEXICALI 29,GOYOMA SA DE CV,Farmacias sin minisúper,0 a 5 personas,AVENIDA,16 DE SEPTIEMBRE (B),250,,LOS ALGODONES,21970,"VICENTE GUERRERO (ALGODONES), Mexicali, BAJA CALIFORNIA",,CGEN@GOYOMA.COM,,Fijo,-114.73095692,32.71583878,,,
02002464111003121000000291S9,6189706,FARMACIAS SIMILARES MEXICALI 30,GOYOMA SA DE CV,Farmacias sin minisúper,0 a 5 personas,BOULEVARD,GENERAL SANTIAGO VIDAURRI,236,3,SOLIDARIDAD SOCIAL,21387,"MEXICALI, Mexicali, BAJA CALIFORNIA",,CGEN@GOYOMA.COM,,Fijo,-115.44687559,32.58846147,,,
02002464111004091000000291S3,6785314,FARMACIAS SIMILARES MEXICALI 31,GOYOMA SA DE CV,Farmacias sin minisúper,0 a 5 personas,CALZADA,GÓMEZ MORÍN (REFORME),1101,2,VILLA RESIDENCIAL VENECIA,21353,"MEXICALI, Mexicali, BAJA CALIFORNIA",,CGEN@GOYOMA.COM,,Fijo,-115.46976883,32.59519427,,,
02002464111006451000000291S7,9456422,FARMACIAS SIMILARES MEXICALI 32,GOYOMA SA DE CV,Farmacias sin minisúper,0 a 5 personas,PROLONGACION,HEROICO COLEGIO MILITAR,1801,1,FELIPE ANGELES,,"MEXICALI, Mexicali, BAJA CALIFORNIA",,CGEN@GOYOMA.COM,,Fijo,-115.50607734,32.60939232,,,
02002464111005832000038010S9,9223878,FARMACIAS SIMILARES MEXICALI 33,FRANCORAL SA DE CV,Farmacias sin minisúper,0 a 5 personas,CALZADA,ROSA DEL DESIERTO,4358,,VALLE DEL PEDREGAL,,"MEXICALI, Mexicali, BAJA CALIFORNIA",,PEDREGAL.1@HOTMAIL.COM,,Fijo,-115.35446913,32.58675749,,,
02002464111005962000038010S4,9223890,FARMACIAS SIMILARES MEXICALI 34,FRANCORAL SA DE CV,Farmacias sin minisúper,0 a 5 personas,AVENIDA,RÍO SAN ÁNGEL,48,1,VALLE DE PUEBLA,,"MEXICALI, Mexicali, BAJA CALIFORNIA",,SIMI.PUEBLA@HOTMAIL.COM,,Fijo,-115.36750193,32.57801147,EDIFICIO COMERCIAL Y DE SERVICIOS,MAR Y SAL,48
02002464111005872000038010S5,9223882,FARMACIAS SIMILARES MEXICALI 35,FRANCORAL SA DE CV,Farmacias sin minisúper,6 a 10 personas,AVENIDA,OCOTLÁN,1003,,SAN MARCOS,,"MEXICALI, Mexicali, BAJA CALIFORNIA",,SIMI.SANMARCOS@HOTMAIL.COM,,Fijo,-115.49427421,32.63276924,,,
02002464111006291000038010S7,9460000,FARMACIAS SIMILARES MEXICALI 37,FRANCORAL SA DE CV,Farmacias sin minisúper,0 a 5 personas,CALZADA,ROSA DEL DESIERTO (CECILIA),4358,,VALLE DEL PREDEGAL,,"MEXICALI, Mexicali, BAJA CALIFORNIA",,PEDREGAL2@OUTLOOK.COM,,Fijo,-115.35782358,32.58066928,,,
02002464111004021000000291S0,6778765,FARMACIAS SIMILARES MEXICALI 38,GOYOMA SA DE CV,Farmacias sin minisúper,0 a 5 personas,AVENIDA,RÍO CHAMPOTÓN,2099,7,BUGAMBILIAS,21395,"MEXICALI, Mexicali, BAJA CALIFORNIA",,CGEN@GOYOMA.COM,,Fijo,-115.37411338,32.60134623,,,
02002464111005812000038010S1,9223876,FARMACIAS SIMILARES MEXICALI 4,FRANCORAL SA DE CV,Farmacias sin minisúper,0 a 5 personas,BOULEVARD,ANÁHUAC,1808,,JARDINES DE LAGO,,"MEXICALI, Mexicali, BAJA CALIFORNIA",,JARDINES.DEL.LAGO@HOTMAIL.COM,,Fijo,-115.47928030,32.61665420,,,
02002464111004231000000291S5,6814086,FARMACIAS SIMILARES MEXICALI 42,,Farmacias sin minisúper,0 a 5 personas,CALZADA,VILLA OBREGÓN,236,,HACIENDA DEL RIO,21399,"MEXICALI, Mexicali, BAJA CALIFORNIA",,CGEN@GOYOMA.COM,,Fijo,-115.37733504,32.61003379,,,
02002464111005922000038010S8,9223887,FARMACIAS SIMILARES MEXICALI 43,FRANCORAL SA DE CV,Farmacias sin minisúper,0 a 5 personas,AVENIDA,MICHOACÁN,2100,,REVOLUCION,,"MEXICALI, Mexicali, BAJA CALIFORNIA",,SIMI.MICHOACAN@HOTMAIL.COM,,Fijo,-115.51206913,32.65620392,,,
02002464111004551000000291S6,6868059,FARMACIAS SIMILARES MEXICALI 44,GOYOMA SA DE CV,Farmacias sin minisúper,0 a 5 personas,BOULEVARD,ANÁHUAC,2650,,VILLA RESIDENCIAL DEL PRADO 2 SECCION,21355,"MEXICALI, Mexicali, BAJA CALIFORNIA",,CGEN@GOYOMA.COM,,Fijo,-115.47146061,32.57784494,,,
02002464111004531000000291S8,6868058,FARMACIAS SIMILARES MEXICALI 45,GOYOMA SA DE CV,Farmacias sin minisúper,0 a 5 personas,OTRO(ESPECIFIQUE),BARDA,1300,,LA CONDESA,21395,"MEXICALI, Mexicali, BAJA CALIFORNIA",,CGEN@GOYOMA.COM,,Fijo,-115.34561254,32.59531604,,,
02002464111006371000000291S7,9395437,FARMACIAS SIMILARES MEXICALI 48,GOYOMA SA DE CV,Farmacias sin minisúper,0 a 5 personas,AVENIDA,LÁZARO CÁRDENAS,498,,VIÑEDOS RESIDENCIAL,,"MEXICALI, Mexicali, BAJA CALIFORNIA",,CGEN@GOYOMA.COM,,Fijo,-115.56266267,32.62177630,,,
02002464111006301000038010S4,9446090,FARMACIAS SIMILARES MEXICALI 49,FRANCORAL SA DE CV,Farmacias sin minisúper,0 a 5 personas,CALLE,NOVENA,1501,,VERONA,,"MEXICALI, Mexicali, BAJA CALIFORNIA",,F74669@HOTMAIL.COM,,Fijo,-115.38433967,32.64224759,,,
02002464111006381000000291S6,9408875,FARMACIAS SIMILARES MEXICALI 50,GOYOMA SA DE CV,Farmacias sin minisúper,0 a 5 personas,CALZADA,MANUEL GÓMEZ MORÍN,1930,,HACIENDA LOS PORTALES,,"MEXICALI, Mexicali, BAJA CALIFORNIA",,CGEN@GOYOMA.COM,,Fijo,-115.49475353,32.59523658,,,
02002464111006461000000291S6,9395130,FARMACIAS SIMILARES MEXICALI 51,GOYOMA SA DE CV,Farmacias sin minisúper,0 a 5 personas,CALLE,ROBERTO MONTENEGRO,1899,3,VILLA COLONIAL,,"MEXICALI, Mexicali, BAJA CALIFORNIA",,CGEN@GOYOMA.COM,,Fijo,-115.40907736,32.62503923,,,
02002464111006391000000291S5,9466990,FARMACIAS SIMILARES MEXICALI 52,GOYOMA SA DE CV,Farmacias sin minisúper,0 a 5 personas,CALZADA,CUAUHTÉMOC (AVIACIÓN),475,,AVIACION,,"MEXICALI, Mexicali, BAJA CALIFORNIA",,CGEN@GOYOMA.COM,,Fijo,-115.44223558,32.65803037,,,
02002464111006321000000291S2,9438625,FARMACIAS SIMILARES MEXICALI 54,GOYOMA SA DE CV,Farmacias sin minisúper,0 a 5 personas,CALLE,CÓNDOR,0,,EL CONDOR,,"MEXICALI, Mexicali, BAJA CALIFORNIA",,CGEN@GOYOMA.COM,,Fijo,-115.38173520,32.59476242,,,
02002464111006341000000291S0,9427791,FARMACIAS SIMILARES MEXICALI 59,GOYOMA SA DE CV,Farmacias sin minisúper,0 a 5 personas,CALLE,HEROICA DE PUEBLA,698,,ANGELES DE PUEBLA,,"MEXICALI, Mexicali, BAJA CALIFORNIA",,CGEN@GOYOMMA.COM,,Fijo,-115.33690340,32.56535529,,,
02002464111006331000000291S1,9427789,FARMACIAS SIMILARES MEXICALI 60,GOYOMA SA DE CV,Farmacias sin minisúper,0 a 5 personas,AVENIDA,LEÓN,200,,VILLA RESIDENCIAL DEL PRADO,,"MEXICALI, Mexicali, BAJA CALIFORNIA",,CGEN@GOYOMA.COM,,Fijo,-115.47956401,32.57721227,,,
02002464111006441000000291S8,9395128,FARMACIAS SIMILARES MEXICALI 61,GOYOMA SA DE CV,Farmacias sin minisúper,0 a 5 personas,OTRO(ESPECIFIQUE),NINGUNO,1,,LA CONDESA,,"MEXICALI, Mexicali, BAJA CALIFORNIA",,CGEN@GOYOMA.COM,,Fijo,-115.34132757,32.58232189,,,
02002464111006611000038010S6,9399729,FARMACIAS SIMILARES MEXICALI 62 ,FRANCORAL SA DE CV,Farmacias sin minisúper,0 a 5 personas,CALLE,RÍO FUERTE,599,,PROHOGAR,,"MEXICALI, Mexicali, BAJA CALIFORNIA",,PROHOGAR76211@HOTMAIL.COM,,Fijo,-115.43900852,32.64984726,,,
02002464111005782000038010S6,9223873,FARMACIAS SIMILARES MEXICALI 64,FRANCORAL SA DE CV,Farmacias sin minisúper,0 a 5 personas,AVENIDA,RÍO SAN ÁNGEL,265,,VALLE DE PUEBLA,,"MEXICALI, Mexicali, BAJA CALIFORNIA",,VALLEPUEBLA2@HOTMAIL.COM,,Fijo,-115.36956061,32.57354369,,,
02002464111006281000000291S8,9436390,FARMACIAS SIMILARES MEXICALI 65,GOYOMA SA DE CV,Farmacias sin minisúper,0 a 5 personas,CALZADA,MANUEL GÓMEZ MORÍN,1999,1,HACIENDA LOS PORTALES,,"MEXICALI, Mexicali, BAJA CALIFORNIA",,CGEN@GOYOMA.COM,,Fijo,-115.49478332,32.59523670,,,
02002464111006481000000291S4,9416210,FARMACIAS SIMILARES MEXICALI 67,GOYOMA SA DE CV,Farmacias sin minisúper,0 a 5 personas,BOULEVARD,ISLAS AGRARIAS,3655,18,ALTARIA RESIDENCIAL,,"MEXICALI, Mexicali, BAJA CALIFORNIA",,CGEN@GOYOMA.COM,,Fijo,-115.37252507,32.61398732,,,
02002464111004141000000291S6,6789311,FARMACIAS SIMILARES MEXICALI 7,GOYOMA SA DE CV,Farmacias sin minisúper,0 a 5 personas,CALLE,REACOMODO GONZÁLEZ,1,,CARRANZA,21135,"COLONIA VENUSTIANO CARRANZA (LA CARRANZA), Mexicali, BAJA CALIFORNIA",,CGEN@GOYOMA.COM,,Fijo,-115.16547998,32.23199110,,,
02002464111005862000038010S6,9223881,FARMACIAS SIMILARES MEXICALI 9,FRANCORAL SA DE CV,Farmacias sin minisúper,0 a 5 personas,CALLE,CAMINO NACIONAL,3,,LUNA,,"MEXICALI, Mexicali, BAJA CALIFORNIA",,SANTAISABEL@HOTMAIL.COM,,Fijo,-115.57395702,32.62779072,,,
02004464111010832000038352S8,9320817,FARMACIAS SIMILARES NATURA 4,DISTRIBUIDORA DE MIS FARMACIAS SAPI DE CV,Farmacias sin minisúper,0 a 5 personas,AVENIDA,VISTAS DEL SOL,1601,,NATURA,22165,"TIJUANA, Tijuana, BAJA CALIFORNIA",,NATURA4@DEMISFARMACIAS.COM,WWW.DEMISFARMACIAS.COM,Fijo,-116.92360988,32.36632263,,,
02004464111009753000038352S9,7923610,FARMACIAS SIMILARES OFICINAS ADMINISTRATIVAS,DISTRIBUIDORA DE MIS FARMACIAS SAPI DE CV,Farmacias sin minisúper,0 a 5 personas,AVENIDA,PASEO CENTENARIO TIJUANA,10310,,ZONA URBANA RIO TIJUANA,22010,"TIJUANA, Tijuana, BAJA CALIFORNIA",,,WWW.DEMISFARMACIAS.COM,Fijo,-117.01514138,32.53113964,EDIFICIO COMERCIAL Y DE SERVICIOS,CAZZAR,301
02001464111001211000000291S2,6419170,FARMACIAS SIMILARES PALMERAS ENSENADA 11,GOYOMA SA DE CV,Farmacias sin minisúper,0 a 5 personas,CALLE,HUERTA,136,,VISTA HERMOSA,22890,"ENSENADA, Ensenada, BAJA CALIFORNIA",,CGEN@GOYOMA.COM,,Fijo,-116.59699236,31.81451882,,,
02001464111001321000000291S9,64005,FARMACIAS SIMILARES PLAYA HERMOSA,GOYOMA SA DE CV,Farmacias sin minisúper,0 a 5 personas,AVENIDA,PEDRO LOYOLA,18,,PLAYA HERMOSA,22890,"ENSENADA, Ensenada, BAJA CALIFORNIA",,CGEN@GOYOMACOM,,Fijo,-116.60571589,31.83263938,,,
02005464111000271000000291S8,6285246,FARMACIAS SIMILARES PLAYAS DE ROSARITO 1,GOYOMA SA DE CV,Farmacias sin minisúper,0 a 5 personas,CARRETERA,LIBRE TIJUANA-ROSARITO,123,3,LUCIO BLANCO,22710,"PLAYAS DE ROSARITO, Playas de Rosarito, BAJA CALIFORNIA",,CGEN@GOYOMA.COM,,Fijo,-117.05685416,32.38390577,,,
02005464111000921000000291S8,9442649,FARMACIAS SIMILARES PLAYAS DE ROSARITO 10,GOYOMA SA DE CV,Farmacias sin minisúper,0 a 5 personas,AVENIDA,COSTA ALEGRE (TABASCO),0,10,PLAYAS DE ROSARITO,,"PLAYAS DE ROSARITO, Playas de Rosarito, BAJA CALIFORNIA",,CGEN@GOYOMA.COM,,Fijo,-117.01638681,32.39363253,CENTRO Y PLAZA COMERCIAL,PLAZA ROX,SN
02001464111002491000000291S9,8280660,FARMACIAS SIMILARES PLAYAS DE ROSARITO 11,GOYOMA SA DE CV,Farmacias sin minisúper,0 a 5 personas,CALLE,JESÚS GONZÁLEZ,0,,REFORMA,22704,"PLAYAS DE ROSARITO, Playas de Rosarito, BAJA CALIFORNIA",,CGEN@GOYOMA.COM,,Fijo,-117.05620376,32.37142403,,,
02005464111000352001000291S6,130565,FARMACIAS SIMILARES PLAYAS DE ROSARITO 2,GOYOMA SA DE CV,Farmacias sin minisúper,0 a 5 personas,CARRETERA,LIBRE TIJUANA-ROSARITO,90,1,PLAN LIBERTADOR,22710,"PLAYAS DE ROSARITO, Playas de Rosarito, BAJA CALIFORNIA",,CGEN@GOYOMA.COM,,Fijo,-117.04775323,32.40776779,,,
02005464111000541000000000U4,6802418,FARMACIAS SIMILARES PLAYAS DE ROSARITO 4,DISTRIBUIDORA DE MIS FARMACIAS SAPI DE CV,Farmacias sin minisúper,0 a 5 personas,CARRETERA,LIBRE TIJUANA-ROSARITO,562,0,INDEPENDENCIA ,22706,"PLAYAS DE ROSARITO, Playas de Rosarito, BAJA CALIFORNIA",,WENDY@DEMISFARMACIAS.COM,,Fijo,-117.05172428,32.40095949,CENTRO Y PLAZA COMERCIAL,PLAZA IRIS ,
02005464111000531000000000U5,6802364,FARMACIAS SIMILARES PLAYAS DE ROSARITO 5,DISTRIBUIDORA DE MIS FARMACIAS SAPI DE CV,Farmacias sin minisúper,6 a 10 personas,CALLE,GUERRERO,0,894,CONSTITUCION,22706,"PLAYAS DE ROSARITO, Playas de Rosarito, BAJA CALIFORNIA",,WENDY@DEMISFARMACIAS.COM,,Fijo,-117.05030613,32.36571051,,,
02005464111000561000000000U2,6802424,FARMACIAS SIMILARES PLAYAS DE ROSARITO 6,DISTRIBUIDORA DE MIS FARMACIAS SAPI DE CV,Farmacias sin minisúper,0 a 5 personas,CALLE,NINGUNO,0,,PRIMO TAPIA,22740,"PRIMO TAPIA, Playas de Rosarito, BAJA CALIFORNIA",6616140533,WENDY@DEMISFARMACIAS.COM,,Fijo,-116.91947152,32.22611465,,,
02005464111000551000000000U3,6802419,FARMACIAS SIMILARES PLAYAS DE ROSARITO 7,DISTRIBUIDORA DE MIS FARMACIAS SAPI DE CV,Farmacias sin minisúper,0 a 5 personas,BOULEVARD,ALFREDO BONFIL,402,0,AMPLIACION MAZATLAN,22707,"PLAYAS DE ROSARITO, Playas de Rosarito, BAJA CALIFORNIA",6642760715,LILIANALUJANOJ@GMAIL.COM,,Fijo,-117.04502627,32.34728426,,,
02004464111006911000000291S6,6785325,FARMACIAS SIMILARES PLAYAS DE ROSARITO 8,GOYOMA SA DE CV,Farmacias sin minisúper,0 a 5 personas,BOULEVARD,BENITO JUÁREZ,1,,ECHEVERRIA,22710,"PLAYAS DE ROSARITO, Playas de Rosarito, BAJA CALIFORNIA",,CGEN@GOYOMA.COM,,Fijo,-117.06054616,32.37107920,,,
02004464111008391000000291S9,6868531,FARMACIAS SIMILARES PLAZA CALIFORNIA,GOYOMA SA DE CV,Farmacias sin minisúper,0 a 5 personas,CALLE,LA PAZ,8853,,BONATERRA,22647,"TIJUANA, Tijuana, BAJA CALIFORNIA",,CGEN@GOYOMA.COM,,Fijo,-117.00504171,32.46766328,,,
02004464111004062001000291S0,6285211,FARMACIAS SIMILARES PLAZA LOS VENADOS,GOYOMA SA DE CV,Farmacias sin minisúper,0 a 5 personas,AVENIDA,PADRE SALVATIERRA,14622,,COLINAS SAN RAFAEL,22170,"TIJUANA, Tijuana, BAJA CALIFORNIA",,CGEN@GOYOMA.COM,,Fijo,-117.06819267,32.48502930,,,
02001464111001192000000291S4,6284830,FARMACIAS SIMILARES REFORMA ENSENADA 1,GOYOMA SA DE CV,Farmacias sin minisúper,0 a 5 personas,AVENIDA,REFORMA,107,14,OBRERA,22830,"ENSENADA, Ensenada, BAJA CALIFORNIA",,CGEN@GOYOMA.COM,,Fijo,-116.60585152,31.85582379,CENTRO Y PLAZA COMERCIAL,SANTA MARGARITA,14
02002464111005842000038010S8,9223879,FARMACIAS SIMILARES RIO COLORADO OFICINA,FRANCORAL SA DE CV,Farmacias sin minisúper,6 a 10 personas,CARRETERA,CARRETERA A SAN LUIS RIO COLORADO KM 8+500,,,GONZALEZ ORTEGA,21397,"MEXICALI, Mexicali, BAJA CALIFORNIA",,FRANCORAL_AUDITORIAQPCONTADORES@HOTMAIL.COM,,Fijo,-115.39462535,32.58958274,,,
02005464111000941000000291S6,9463852,FARMACIAS SIMILARES ROSARITO 6,GOYOMA SA DE CV,Farmacias sin minisúper,0 a 5 personas,CARRETERA,LIBRE TIJUANA A ROSARITO,1998,,CARLOS SALINAS DE GOTARI,,"PLAYAS DE ROSARITO, Playas de Rosarito, BAJA CALIFORNIA",,CGEN@GOYOMA.COM,,Fijo,-117.05492372,32.39408724,,,
02002464111002032001000291S9,149637,FARMACIAS SIMILARES SAN FELIPE 1,GOYOMA SA DE CV,Farmacias sin minisúper,0 a 5 personas,CALZADA,CHETUMAL,320,,CENTRO,21278,"SAN FELIPE                                                                                                    , San Felipe, BAJA CALIFORNIA",,CGEN@GOYOMA.COM,,Fijo,-114.83960242,31.02448993,,,
02007464111000021000000291S3,9438624,FARMACIAS SIMILARES SAN FELIPE 2,GOYOMA SA DE CV,Farmacias sin minisúper,0 a 5 personas,CALZADA,CHETUMAL,743,,SAN FELIPE,,"SAN FELIPE                                                                                                    , San Felipe, BAJA CALIFORNIA",,CGEN@GOYOMA.COM,,Fijo,-114.84406198,31.02586153,,,
02002464111006591000038010S0,9447326,FARMACIAS SIMILARES SAN LUIS RIO COLORADO 11,FRANCORAL SA DE CV,Farmacias sin minisúper,0 a 5 personas,CALLE,NINGUNO,2,,VALLE MEXICALI,,"CRUCERO DEL TOLUCA (EJIDO TOLUCA), Mexicali, BAJA CALIFORNIA",,EJTOLUCA76198@HOTMAIL.COM,,Fijo,-115.06784998,32.42874589,,,
02004464111007551000000000U9,6802421,FARMACIAS SIMILARES TIJUANA 115 MIRAMAR,DISTRIBUIDORA DE MIS FARMACIAS SAPI DE CV,Farmacias sin minisúper,0 a 5 personas,CALLE,MIGUEL INCLAN,2834,,MIRAMAR,22238,"TIJUANA, Tijuana, BAJA CALIFORNIA",,MIRAMAR@DEMISFARMACIAS.COM,,Fijo,-117.08359380,32.51377535,,,
02004464111007321000000291S7,6801253,FARMACIAS SIMILARES TIJUANA 130,GOYOMA SA DE CV,Farmacias sin minisúper,0 a 5 personas,CALLE,PEÑÓN,35,,EL PEÑON,22204,"TIJUANA, Tijuana, BAJA CALIFORNIA",,CGEN@GOYOMA.COM,,Fijo,-116.87364305,32.52960363,,,
02004464111007331000000291S6,6801888,FARMACIAS SIMILARES TIJUANA 134,GOYOMA SA DE CV,Farmacias sin minisúper,0 a 5 personas,BOULEVARD,GENERAL RODOLFO SÁNCHEZ TABOADA,9013,,ZONA ESTE,22000,"TIJUANA, Tijuana, BAJA CALIFORNIA",,CGEN@GOYOMA.COM,,Fijo,-117.02699994,32.52809233,,,
02004464111007731000000000S7,6802533,FARMACIAS SIMILARES TIJUANA 135 GRANJAS FAMILIARES,DISTRIBUIDORA DE MIS FARMACIAS SAPI DE CV,Farmacias sin minisúper,0 a 5 personas,AVENIDA,AVENIDA DE LA CIENEGA,0,,GRANJAS FAMILIARES DEL MATAMOROS,22203,"TIJUANA, Tijuana, BAJA CALIFORNIA",6642072243,,,Fijo,-116.88565509,32.52449238,,,
02004464111007341000000291S5,6802030,FARMACIAS SIMILARES TIJUANA 136,GOYOMA SA DE CV,Farmacias sin minisúper,0 a 5 personas,CALLE,CALLE DEL MANZANO,12389,3,VILLA DEL ALAMO,22170,"TIJUANA, Tijuana, BAJA CALIFORNIA",,CGEN@GOYOMA.COM,,Fijo,-116.94399436,32.43279850,,,
02004464111004032001000291S3,6288160,FARMACIAS SIMILARES TIJUANA 14,GOYOMA SA DE CV,Farmacias sin minisúper,0 a 5 personas,BOULEVARD,GUSTAVO DÍAZ ORDAZ,1550,,JARDINES DE LA MESA,22126,"TIJUANA, Tijuana, BAJA CALIFORNIA",,CGEN@GOYOMA.COM,,Fijo,-116.92746814,32.46230668,,,
02004464111008401000000291S6,6868532,FARMACIAS SIMILARES TIJUANA 151,GOYOMA SA DE CV,Farmacias sin minisúper,0 a 5 personas,CALLE,LOS OLIVOS,6,5,LAS TORRES PARTE BAJA,22444,"TIJUANA, Tijuana, BAJA CALIFORNIA",,CGEN@GOYOMA.COM,,Fijo,-116.90232095,32.53767005,,,
02004464111011471000000291S4,9401043,FARMACIAS SIMILARES TIJUANA 160,GOYOMA SA DE CV,Farmacias sin minisúper,0 a 5 personas,CALLE,CAÑON AZTECA,3321,,ARTESANAL,,"TIJUANA, Tijuana, BAJA CALIFORNIA",,CGEN@GOYOMA.COM,,Fijo,-117.07029661,32.50818670,,,
02004464111011641000000291S2,9459933,FARMACIAS SIMILARES TIJUANA 17,GOYOMA SA DE CV,Farmacias sin minisúper,0 a 5 personas,CALLE,DE LAS TORRES,1201,,LAS TORRES,,"TIJUANA, Tijuana, BAJA CALIFORNIA",,CGEN@GOYOMA.COM,,Fijo,-116.89301256,32.54507944,,,
02004464111011221000000291S3,9406287,FARMACIAS SIMILARES TIJUANA 178,GOYOMA SA DE CV,Farmacias sin minisúper,0 a 5 personas,CALLE,PASEO DEL RÍO,2808,,RIO TIJUANA TERCERA ETAPA,,"TIJUANA, Tijuana, BAJA CALIFORNIA",,CGEN@GOYOMA.COM,,Fijo,-116.92656323,32.47798403,,,
02004464111011201000000291S5,9427788,FARMACIAS SIMILARES TIJUANA 181,GOYOMA SA DE CV,Farmacias sin minisúper,0 a 5 personas,CALLE,VÍA RÁPIDA,12500,,LOS SANTOS,,"TIJUANA, Tijuana, BAJA CALIFORNIA",,CGEN@GOYOMA.COM,,Fijo,-116.96467266,32.51018485,CENTRO Y PLAZA COMERCIAL,PLAZA LOS SANTOS,SN
02004464111007521001000000S2,6802374,FARMACIAS SIMILARES TIJUANA 19 MATAMOROS,DISTRIBUIDORA DE MIS FARMACIAS SAPI DE CV,Farmacias sin minisúper,0 a 5 personas,CALLE,NOVENA,0,,EJIDO MATAMOROS,22204,"TIJUANA, Tijuana, BAJA CALIFORNIA",6642168519,WENDY@DEMISFARMACIAS.COM,,Fijo,-116.86410664,32.52021595,,,
02004464111011231000000291S2,9427793,FARMACIAS SIMILARES TIJUANA 195,GOYOMA SA DE CV,Farmacias sin minisúper,0 a 5 personas,BOULEVARD,LOS LAURELES,12901,,HACIENDA LOS LAURELES,,"TIJUANA, Tijuana, BAJA CALIFORNIA",,CGEN@GOYOMA.COM,,Fijo,-116.96750250,32.43887331,CENTRO Y PLAZA COMERCIAL,LOS LAURELES,SN
02004464111004071000000291S1,6288161,FARMACIAS SIMILARES TIJUANA 22,GOYOMA SA DE CV,Farmacias sin minisúper,0 a 5 personas,BOULEVARD,BLVD SALVATIERRA,5108,,SALVATIERRA,22607,"TIJUANA, Tijuana, BAJA CALIFORNIA",,CGEN@GOYOMA.COM,,Fijo,-117.07438161,32.48184697,,,
02004464111007591000000000S5,6802426,FARMACIAS SIMILARES TIJUANA 24 LOS VALLES,DISTRIBUIDORA DE MIS FARMACIAS SAPI DE CV,Farmacias sin minisúper,0 a 5 personas,BOULEVARD,TERCER AYUNTAMIENTO,13504,8,PALMA REAL,22164,"TIJUANA, Tijuana, BAJA CALIFORNIA",6643785023,WENDY@DEMISFARMACIAS.COM,,Fijo,-116.95365031,32.38987881,,,
02004464111007431000000000S4,6802365,FARMACIAS SIMILARES TIJUANA 27 REFUGIO,DISTRIBUIDORA DE MIS FARMACIAS S DE RL DE CV,Farmacias sin minisúper,6 a 10 personas,CALLE,CALLE EL FLORIDO,10000,,SEVILLA RESIDENCIAL,22244,"TIJUANA, Tijuana, BAJA CALIFORNIA",,,,Fijo,-116.88036921,32.46125429,,,
02004464111004081000000291S0,6288164,FARMACIAS SIMILARES TIJUANA 28,GOYOMA SA DE CV,Farmacias sin minisúper,0 a 5 personas,BOULEVARD,GUSTAVO SALINAS,3231,3,AVIACION,22265,"TIJUANA, Tijuana, BAJA CALIFORNIA",,CGEN@GOYOMA.COM,,Fijo,-117.00969954,32.51534087,,,
02004464111004021000000291S6,6288163,FARMACIAS SIMILARES TIJUANA 29,GOYOMA SA DE CV,Farmacias sin minisúper,0 a 5 personas,CALLE,PUERTECITOS,20520,4,AMPLIACION GUAYCURA,22214,"TIJUANA, Tijuana, BAJA CALIFORNIA",,CGEN@GOYOMA.COM,,Fijo,-116.91960578,32.50567874,,,
02004464111004051000000291S3,6288165,FARMACIAS SIMILARES TIJUANA 30,GOYOMA SA DE CV,Farmacias sin minisúper,0 a 5 personas,CALLE,PADILLA,8800,1402,FEDERAL,22320,"TIJUANA, Tijuana, BAJA CALIFORNIA",,CGEN@GOYOMA.COM,,Fijo,-117.02958489,32.53997061,,,
02004464111004092001000291S7,6288167,FARMACIAS SIMILARES TIJUANA 33,GOYOMA SA DE CV,Farmacias sin minisúper,0 a 5 personas,CALLE,JOSÉ LÓPEZ PORTILLO PONIENTE,412,4,MODULOS DE TIJUANA,22265,"TIJUANA, Tijuana, BAJA CALIFORNIA",,CGEN@GOYOMA.COM,,Fijo,-116.93026235,32.53706108,,,
02004464111004112001000291S3,6288166,FARMACIAS SIMILARES TIJUANA 34,GOYOMA SA DE CV,Farmacias sin minisúper,0 a 5 personas,BOULEVARD,GUSTAVO DÍAZ ORDAZ,12,6,LOS PINOS,22680,"TIJUANA, Tijuana, BAJA CALIFORNIA",,CGEN@GOYOMA.COM,,Fijo,-116.93376603,32.47165784,,,
02004464111007451000000000U2,6802367,FARMACIAS SIMILARES TIJUANA 37 CAMPO,DISTRIBUIDORA DE MIS FARMACIAS SAPI DE CV,Farmacias sin minisúper,0 a 5 personas,CALLE,CALLE DEL CEREZO,59024,0,VILLA DEL CAMPO,22254,"VILLA DEL CAMPO, Tijuana, BAJA CALIFORNIA",,WENDY@DEMISFARMACIAS.COM,,Fijo,-116.73445516,32.51213349,,,
02004464111007491000000000S8,6802371,FARMACIAS SIMILARES TIJUANA 39 SALVATIERRA 2,DISTRIBUIDORA DE MIS FARMACIAS SAPI DE CV,Farmacias sin minisúper,0 a 5 personas,BOULEVARD,NUEVA AURORA,5734,,PEDREGAL DE SANTA JULIA,22604,"TIJUANA, Tijuana, BAJA CALIFORNIA",6644495047,WENDY@DEMISFARMACIAS.COM,,Fijo,-117.06590678,32.48367731,,,
02004464111011211000000291S4,9406286,FARMACIAS SIMILARES TIJUANA 45,GOYOMA SA DE CV,Farmacias sin minisúper,0 a 5 personas,CALLE,BENITO JUÁREZ,56,,LA JOYA,,"TIJUANA, Tijuana, BAJA CALIFORNIA",,GCEN@GOYOMA.COM,,Fijo,-117.00885693,32.44442979,,,
02004464111007371000000000U2,6802311,FARMACIAS SIMILARES TIJUANA 5 BUENA VISTA,,Farmacias sin minisúper,6 a 10 personas,AVENIDA,INGENIERO JUAN OJEDA ROBLES Y O DE LA PAZ,475,0,BUENA VISTA,22415,"TIJUANA, Tijuana, BAJA CALIFORNIA",,WENDY@DEMISFARMACIAS.COM,,Fijo,-116.98788944,32.51982033,,,
02004464111009302000000000U5,8485769,FARMACIAS SIMILARES TIJUANA 54,GAZCON SA DE CV,Farmacias sin minisúper,0 a 5 personas,AVENIDA,LAS TORRES,7173,,PIPILA,22206,"TIJUANA, Tijuana, BAJA CALIFORNIA",,FI498TIJUANA54@GMAIL.COM,,Fijo,-116.87790944,32.50672070,,,
02004464111004041000000291S4,6288169,FARMACIAS SIMILARES TIJUANA 56,GOYOMA SA DE CV,Farmacias sin minisúper,0 a 5 personas,BOULEVARD,GUSTAVO DÍAZ ORDAZ,12828,4,DEL PRADO,22420,"TIJUANA, Tijuana, BAJA CALIFORNIA",,CGEN@GOYOMA.COM,,Fijo,-116.98583701,32.50893858,CENTRO Y PLAZA COMERCIAL,PLAZA DEL PRADO,4
02004464111007531000000000U1,6802417,FARMACIAS SIMILARES TIJUANA 59 MORITA,DISTRIBUIDORA DE MIS FARMACIAS SAPI DE CV,Farmacias sin minisúper,0 a 5 personas,AVENIDA,LAS FUENTES,,0,LAS FUENTES ,22245,"TIJUANA, Tijuana, BAJA CALIFORNIA",,WENDY@DEMISFARMACIAS.COM,,Fijo,-116.84380997,32.47057900,,,
02004464111007631000000000U9,6802470,FARMACIAS SIMILARES TIJUANA 63 LOS REYES,DISTRIBUIDORA DE MIS FARMACIAS SAPI DE CV,Farmacias sin minisúper,0 a 5 personas,AVENIDA,GARCIA,10000,,VILLAS DE BAJA CALIFORNIA,22125,"TIJUANA, Tijuana, BAJA CALIFORNIA",,WENDY@DEMISFARMACIAS.COM,,Fijo,-116.93007593,32.45303256,CENTRO Y PLAZA COMERCIAL,CENTRO Y PLAZA COMERCIAL SIN NOMBRE,2
02004464111004011000000291S7,6288168,FARMACIAS SIMILARES TIJUANA 67,GOYOMA SA DE CV,Farmacias sin minisúper,0 a 5 personas,BOULEVARD,BOULEVARD DE LOS FUNDADORES,6720,3,EL RUBI,22626,"TIJUANA, Tijuana, BAJA CALIFORNIA",,CGEN@GOYOMA.COM,,Fijo,-117.03208329,32.49634019,,,
02004464111004691000000291S6,119752,FARMACIAS SIMILARES TIJUANA 83,GOYOMA SA DE CV,Farmacias sin minisúper,0 a 5 personas,AVENIDA,PASEO DEL PEDREGAL,786,,PLAYAS DE TIJUANA,22504,"TIJUANA, Tijuana, BAJA CALIFORNIA",,CGEN@GOYOMA.COM,,Fijo,-117.11261775,32.52865570,,,
02004464111006481000000291S0,6778881,FARMACIAS SIMILARES TIJUANA 88,GOYOMA SA DE CV,Farmacias sin minisúper,0 a 5 personas,CALLE,ALBERTO LIMÓN PADILLA,19095,5,CIUDAD INDUSTRIAL,22444,"TIJUANA, Tijuana, BAJA CALIFORNIA",,CGEN@GOYOMA.COM,,Fijo,-116.91956036,32.53784467,CENTRO Y PLAZA COMERCIAL,CENTRUM OTAY,5
02004464111006491000000291S9,6778882,FARMACIAS SIMILARES TIJUANA 89,GOYOMA SA DE CV,Farmacias sin minisúper,0 a 5 personas,CALLE,SAN CLEMENTE,600,,TEJAMEN,22635,"TIJUANA, Tijuana, BAJA CALIFORNIA",,CGEN@GOYOMA.COM,,Fijo,-117.01807446,32.49457736,,,
02004464111006011000000291S5,6417880,FARMACIAS SIMILARES TIJUANA 97,GOYOMA SA DE CV,Farmacias sin minisúper,0 a 5 personas,CALLE,LOMA BONITA,7007,,LOMA BONITA,22604,"TIJUANA, Tijuana, BAJA CALIFORNIA",,CGEN@GOYOMA.COM,,Fijo,-117.04962960,32.48513986,,,
02004464111006221000000291S0,6710502,FARMACIAS SIMILARES TIJUANA 99,GOYOMA SA DE CV,Farmacias sin minisúper,0 a 5 personas,BOULEVARD,GUSTAVO DÍAZ ORDAZ,16359,3,LOMAS VERDES,22127,"TIJUANA, Tijuana, BAJA CALIFORNIA",,CGEN@GOYOMA.COM,,Fijo,-116.93584150,32.47623305,CENTRO Y PLAZA COMERCIAL,PLAZA LAS PALOMAS,10
02004464111006471000000291S1,6778880,FARMACIAS SIMILARES TIJUANA128,GOYOMA SA DE CV,Farmacias sin minisúper,0 a 5 personas,CALLE,PALMERAS,639,10,LAS TORRES,22470,"TIJUANA, Tijuana, BAJA CALIFORNIA",,CGEN@GOYMA.COM,,Fijo,-116.89277237,32.54884501,,,
02004464111011501000000291S8,9466451,FARMACIAS SIMILARES TIJUANA195,GOYOMA SA DE CV,Farmacias sin minisúper,0 a 5 personas,CALLE,HACIENDA SANTO TOMÁS,12901,,HACIENDA LOS LAURELES,22170,"TIJUANA, Tijuana, BAJA CALIFORNIA",,CGEN@GOYOMA.COM,,Fijo,-116.96758653,32.43860654,,,
02004464111004102001000291S4,6288162,FARMACIAS SIMILARES UH PLAYAS DE TIJUANA 1,GOYOMA SA DE CV,Farmacias sin minisúper,0 a 5 personas,AVENIDA,PASEO ENSENADA,2361,,PLAYAS DE TIJUANA,22500,"TIJUANA, Tijuana, BAJA CALIFORNIA",,CGEN@GOYOMA.COM,,Fijo,-117.11622251,32.51454938,,,
02001464111002021000000291S4,6778793,FARMACIAS SIMILARES VALLEVERDE 894 ENSENADA 5,GOYOMA SA DE CV,Farmacias sin minisúper,0 a 5 personas,AVENIDA,REFORMA,1871,,VALLE VERDE PARTE BAJA,22839,"ENSENADA, Ensenada, BAJA CALIFORNIA",,CGEN@GOYOMA.COM,,Fijo,-116.61085124,31.88266600,,,
02001464111002011000000291S5,6778792,FARMACIAS SIMILARES VILLA DEL PRADO ENSENADA 31,GOYOMA SA DE CV,Farmacias sin minisúper,0 a 5 personas,CALLE,SECTOR ORIENTE,635,,VILLA RESIDENCIAL DEL PRADO,,"ENSENADA, Ensenada, BAJA CALIFORNIA",,CGEN@GOYOMA.COM,,Fijo,-116.59494937,31.90304764,,,
02004464111001081000071307S3,145450,FARMACIAS SIMILARS,GRUPO FARCARI SA DE CV,Farmacias sin minisúper,0 a 5 personas,AVENIDA,PASEO DEL GUAYCURA,51,,GUAYCURA,22216,"TIJUANA, Tijuana, BAJA CALIFORNIA",,SIMIGUAYCURA@OUTLOOK.COM,WWW.FARMACIASSIMILARES.COM,Fijo,-116.91842577,32.49333386,,,
02004464111006191000000000U5,6728874,FARMACIAS SIMILIARES,FARMACIA ERICKA S DE RL DE CV,Farmacias sin minisúper,0 a 5 personas,CALLE,EJERCITO TRIGARANTE,16398,0,LOMAS DE LA AMISTAD,22180,"TIJUANA, Tijuana, BAJA CALIFORNIA",,MISIJAUJA_2014@HOTMAIL.COM,,Fijo,-116.95573910,32.47855183,,,
02002464113001502000037574S8,8280149,FARMACIAS STA MONICA,CROWDERS COMPANY SA DE CV,"Comercio al por menor de productos naturistas, medicamentos homeopáticos y de complementos alimenticios",0 a 5 personas,AVENIDA,FRANCISCO I MADERO,611,,PRIMERA SECCION,21100,"MEXICALI, Mexicali, BAJA CALIFORNIA",,RHSANTAMONICA@GMAIL.COM,,Fijo,-115.48676535,32.66495048,,,
02004464111001001000000000U1,138784,FARMACIAS UNION,,Farmacias sin minisúper,0 a 5 personas,BOULEVARD,CUCAPAH,10000,1,LOMAS DE MATAMOROS,22206,"TIJUANA, Tijuana, BAJA CALIFORNIA",,,,Fijo,-116.87833032,32.51377901,,,
02004464111002601000077936S7,151261,FARMACIAS UNION,,Farmacias sin minisúper,0 a 5 personas,AVENIDA,JOSE MARIA PINO SUAREZ,1402,0,LIBERTAD PARTE BAJA,22300,"TIJUANA, Tijuana, BAJA CALIFORNIA",,,,Fijo,-117.01111972,32.53588334,,,
02002621111004501000000000U1,92853,FARMACIAS Y CONSULTORIO RC,,Consultorios de medicina general del sector privado,0 a 5 personas,CALLE,NAVIA,2649,0,VILLA LOMAS ALTAS,21355,"MEXICALI, Mexicali, BAJA CALIFORNIA",,,,Fijo,-115.47172074,32.57609006,,,
02004464111011891000010716S3,9486263,FARMACIAS YZA SUC 0019 1F56-GOMEZ,FARMACON SA DE CV,Farmacias sin minisúper,0 a 5 personas,CALLE,VALENTIN GOMEZ FARIAS ENTRE MONTEALBAN E IZTACIHUATL,4910,,PUESTA DEL SOL 2,22457,"TIJUANA, Tijuana, BAJA CALIFORNIA",,ATENCIONACLIENTES@YZA.MX,WWW.YZA.MX,Fijo,-117.06744300,32.53214600,,,
02002464111006681000010716S9,9486580,FARMACIAS YZA SUC 0028 1I29-HEROICO,FARMACON SA DE CV,Farmacias sin minisúper,0 a 5 personas,CALLE,COLEGIO MILITAR,975,,ESTERITO,23020,"MEXICALI, Mexicali, BAJA CALIFORNIA",,ATENCIONACLIENTES@YZA.MX,WWW.YZA.MX,Fijo,-115.50555700,32.62215400,,,
02002464111006691000010716S8,9471893,FARMACIAS YZA SUC 0029 1I34-MONARCAS,FARMACON SA DE CV,Farmacias sin minisúper,0 a 5 personas,CALZADA,Calzada de los Monarcas,1388,1,RESIDENCIAL DEL PRADO,21354,"MEXICALI, Mexicali, BAJA CALIFORNIA",,ATENCIONACLIENTES@YZA.MX,WWW.YZA.MX,Fijo,-115.48149700,32.59129838,,,
02004464111011901000010716S0,9486520,FARMACIAS YZA SUC 0030 1I28-MIRAMAR,FARMACON SA DE CV,Farmacias sin minisúper,0 a 5 personas,BOULEVARD,BLVD. OCEANO ATLANTICO ENTRE CARDENAL Y COLIBRI,2805,,MIRAMAR,22457,"TIJUANA, Tijuana, BAJA CALIFORNIA",,ATENCIONACLIENTES@YZA.MX,WWW.YZA.MX,Fijo,-117.05058500,32.49735800,,,
02004464111011911000010716S9,9474139,FARMACIAS YZA SUC 0032 1I32-RIBERA,FARMACON SA DE CV,Farmacias sin minisúper,0 a 5 personas,OTRO(ESPECIFIQUE),Sin Referencia,22102,,EL PEÑON,22101,"TIJUANA, Tijuana, BAJA CALIFORNIA",,ATENCIONACLIENTES@YZA.MX,WWW.YZA.MX,Fijo,-116.87140788,32.53341041,,,
02002464111006701000010716S5,9475790,FARMACIAS YZA SUC 0054 VILLA VERDE,FARMACON SA DE CV,Farmacias sin minisúper,6 a 10 personas,AVENIDA,Río San Pedro Mezquital,1654,1,MEXICALI SEGUNDA SECCION,21395,"MEXICALI, Mexicali, BAJA CALIFORNIA",,ATENCIONACLIENTES@YZA.MX,WWW.YZA.MX,Fijo,-115.38262207,32.60035531,,,
02002464111006711000010716S4,9486581,FARMACIAS YZA SUC 0055 PESCADORES,FARMACON SA DE CV,Farmacias sin minisúper,0 a 5 personas,CALLE,PESCADORES ,3311,,"SANTA ROSA, SAN JOSE DEL CABO",23428,"MEXICALI, Mexicali, BAJA CALIFORNIA",,ATENCIONACLIENTES@YZA.MX,WWW.YZA.MX,Fijo,-115.40556700,32.66772400,,,
02004464111011931000010716S7,9486440,FARMACIAS YZA SUC 0056 SANTA BARBARA,FARMACON SA DE CV,Farmacias sin minisúper,0 a 5 personas,BOULEVARD,SANTA ROSA,308,1,SANTA FE,23085,"TIJUANA, Tijuana, BAJA CALIFORNIA",,ATENCIONACLIENTES@YZA.MX,WWW.YZA.MX,Fijo,-117.04409400,32.44944800,,,
02004464111011941000010716S6,9486265,FARMACIAS YZA SUC 0084 1I49-FISHER,FARMACON SA DE CV,Farmacias sin minisúper,0 a 5 personas,CALLE,PROFESOR FRANCISCO PAYEN SANDOVAL,0,,VISTA HERMOSA,22457,"TIJUANA, Tijuana, BAJA CALIFORNIA",,ATENCIONACLIENTES@YZA.MX,WWW.YZA.MX,Fijo,-117.05058500,32.49735800,,,
02004464111011951000010716S5,9486272,FARMACIAS YZA SUC 0087 1I51-CARLOTA,FARMACON SA DE CV,Farmacias sin minisúper,0 a 5 personas,AVENIDA,AV. CARLOTA SOSA DE MALDONADO,12491,,DEL RIO REFORMA,22416,"TIJUANA, Tijuana, BAJA CALIFORNIA",,ATENCIONACLIENTES@YZA.MX,WWW.YZA.MX,Fijo,-117.10391400,32.52669300,,,
02002464111006721000010716S3,9486273,FARMACIAS YZA SUC 0088 1I63-DOMINGUEZ,FARMACON SA DE CV,Farmacias sin minisúper,0 a 5 personas,BOULEVARD,5 DE FEBRERO,2465,,LA RINCONADA,23040,"MEXICALI, Mexicali, BAJA CALIFORNIA",,ATENCIONACLIENTES@YZA.MX,WWW.YZA.MX,Fijo,-115.43386000,32.61974200,,,
02004464111011971000010716S3,9481855,FARMACIAS YZA SUC 0108 1I46-VERDAD,FARMACON SA DE CV,Farmacias sin minisúper,0 a 5 personas,CALLE,Cañon Johnson Norte,7790,2,INDEPENDENCIA,22055,"TIJUANA, Tijuana, BAJA CALIFORNIA",,ATENCIONACLIENTES@YZA.MX,WWW.YZA.MX,Fijo,-117.04160447,32.52214401,,,
02004464111011981000010716S2,9472705,FARMACIAS YZA SUC 0110 1F93-REFUGIO,FARMACON SA DE CV,Farmacias sin minisúper,6 a 10 personas,AVENIDA,Paseo de los Lureles,9290,3,EL REFUGIO QUINTAS CAMPESTRES,22253,"TIJUANA, Tijuana, BAJA CALIFORNIA",,ATENCIONACLIENTES@YZA.MX,WWW.YZA.MX,Fijo,-116.82723359,32.45785610,,,
02002464111006741000010716S1,9472755,FARMACIAS YZA SUC 0127 1I48-LOS OLIVOS,FARMACON SA DE CV,Farmacias sin minisúper,0 a 5 personas,CALZADA,Santa Isabel,3613,,REAL DEL RIO,21137,"MEXICALI, Mexicali, BAJA CALIFORNIA",,ATENCIONACLIENTES@YZA.MX,WWW.YZA.MX,Fijo,-115.52984125,32.64675500,,,
02002464111006751000010716S0,9474194,FARMACIAS YZA SUC 0130 1I43 CONDESA,FARMACON SA DE CV,Farmacias sin minisúper,6 a 10 personas,CALLE,Diluvio,1400,1,LA CONDESA,21395,"MEXICALI, Mexicali, BAJA CALIFORNIA",,ATENCIONACLIENTES@YZA.MX,WWW.YZA.MX,Fijo,-115.33481272,32.58715227,,,
02002464111006761000010716S9,9486444,FARMACIAS YZA SUC 0131 1I66 MAZA DE JUAREZ,FARMACON SA DE CV,Farmacias sin minisúper,0 a 5 personas,BOULEVARD,MARGARITA MAZA DE JUAREZ,2365,2,BENITO JUAREZ ORIENTE,23050,"MEXICALI, Mexicali, BAJA CALIFORNIA",,ATENCIONACLIENTES@YZA.MX,WWW.YZA.MX,Fijo,-115.46964515,32.62279506,,,
02004464111011991000010716S1,9474200,FARMACIAS YZA SUC 0140 LOMA DORADA,FARMACON SA DE CV,Farmacias sin minisúper,6 a 10 personas,BOULEVARD,General Juan C. Zertuche,62,,LOMA DORADA,22785,"ENSENADA, Ensenada, BAJA CALIFORNIA",,ATENCIONACLIENTES@YZA.MX,WWW.YZA.MX,Fijo,-116.60076383,31.82560223,,,
02004464111012001000010716S8,9474196,FARMACIAS YZA SUC 0141 DEL BAJIO,FARMACON SA DE CV,Farmacias sin minisúper,6 a 10 personas,OTRO(ESPECIFIQUE),Azcapotzalco,8961,,viñedos casa blanca,22000,"TIJUANA, Tijuana, BAJA CALIFORNIA",,ATENCIONACLIENTES@YZA.MX,WWW.YZA.MX,Fijo,-116.83112416,32.47988579,,,
02001464111003001000010716S5,9482118,FARMACIAS YZA SUC 0153 EL CAMPANARIO,FARMACON SA DE CV,Farmacias sin minisúper,0 a 5 personas,BOULEVARD,Avenida de las Fuentes,4043,1,CAMPANARIO,22842,"ENSENADA, Ensenada, BAJA CALIFORNIA",,ATENCIONACLIENTES@YZA.MX,WWW.YZA.MX,Fijo,-116.54759621,31.86375130,,,
02002464111006771000010716S8,9482470,FARMACIAS YZA SUC 0205 SAN MARCOS,FARMACON SA DE CV,Farmacias sin minisúper,0 a 5 personas,CALLE,Ocotlán,1100,,SAN MARCOS,21050,"MEXICALI, Mexicali, BAJA CALIFORNIA",,ATENCIONACLIENTES@YZA.MX,WWW.YZA.MX,Fijo,-115.49485952,32.63273201,,,
02004464111012031000010716S5,9486275,FARMACIAS YZA SUC 0210 CANDELARIA,FARMACON SA DE CV,Farmacias sin minisúper,0 a 5 personas,AVENIDA,GENERO ESTRADA,18100,,PRADERA DORADA,23477,"TIJUANA, Tijuana, BAJA CALIFORNIA",,ATENCIONACLIENTES@YZA.MX,WWW.YZA.MX,Fijo,-117.05058500,32.49735800,,,
02004464111012051000010716S3,9474206,FARMACIAS YZA SUC 0242 CUMBRES,FARMACON SA DE CV,Farmacias sin minisúper,0 a 5 personas,CALLE,Oscar Baylón Chacón,9152,,EJIDO FRANCISCO VILLA,22206,"TIJUANA, Tijuana, BAJA CALIFORNIA",,ATENCIONACLIENTES@YZA.MX,WWW.YZA.MX,Fijo,-116.86899014,32.48792175,,,
02004464111012061000010716S2,9484161,FARMACIAS YZA SUC 0243 PLATA,FARMACON SA DE CV,Farmacias sin minisúper,0 a 5 personas,BOULEVARD,DE LA PLATA,,,PUERTA PLATA TERCERA ETAPA,22725,"TIJUANA, Tijuana, BAJA CALIFORNIA",,ATENCIONACLIENTES@YZA.MX,WWW.YZA.MX,Fijo,-117.01895800,32.49011300,,,
02004464111012081000010716S0,9486267,FARMACIAS YZA SUC 0248 MISION,FARMACON SA DE CV,Farmacias sin minisúper,0 a 5 personas,CALLE,INDEPENDENCIA ENTRE ARCOIRIS Y TRANSPENINSULAR,0,,CENTRO,22457,"TIJUANA, Tijuana, BAJA CALIFORNIA",,ATENCIONACLIENTES@YZA.MX,WWW.YZA.MX,Fijo,-117.06891400,32.52421900,,,
02004464111012091000010716S9,9486593,FARMACIAS YZA SUC 0249 CALLE 17,FARMACON SA DE CV,Farmacias sin minisúper,0 a 5 personas,AVENIDA,AV. MAZATLAN ESQ. CON CALLE 17,1608,,POLOGONO EJIDAL,22020,"TIJUANA, Tijuana, BAJA CALIFORNIA",,ATENCIONACLIENTES@YZA.MX,WWW.YZA.MX,Fijo,-116.88233200,32.50880900,,,
02004464111004351011010716S7,6389195,FARMACIAS YZA SUC 1028 OTAY,FARMACON SA DE CV,Farmacias sin minisúper,0 a 5 personas,CALLE,JOSÉ LÓPEZ PORTILLO PONIENTE,1460,44,NUEVA TIJUANA,22435,"TIJUANA, Tijuana, BAJA CALIFORNIA",,ATENCIONACLIENTES@YZA.MX,WWW.YZA.MX,Fijo,-116.93042240,32.53821753,,,
02004464112000261002010716S0,6285878,FARMACIAS YZA SUC 1035 PLAYAS TIJUANA,FARMACON SA DE CV,Farmacias sin minisúper,6 a 10 personas,CALLE,Paseo del Pedregal,1051,112,PLAYAS DE TIJUANA,22500,"TIJUANA, Tijuana, BAJA CALIFORNIA",,ATENCIONACLIENTES@YZA.MX,WWW.YZA.MX,Fijo,-117.11247398,32.52645637,CENTRO Y PLAZA COMERCIAL,PLAZA PEDREGAL,112
02004464112000972002010716S2,6389759,FARMACIAS YZA SUC 1059 TIJUANA,FARMACON SA DE CV,Farmacias sin minisúper,6 a 10 personas,BOULEVARD,Gustavo Díaz Ordaz,14997,,LAS HUERTAS 4TA SECCIÓN,22117,"TIJUANA, Tijuana, BAJA CALIFORNIA",,ATENCIONACLIENTES@YZA.MX,WWW.YZA.MX,Fijo,-116.95828142,32.49395601,,,
02004464112000371001010716S7,6287558,FARMACIAS YZA SUC 1078 PLAZA BONITA TIJ,,Farmacias sin minisúper,0 a 5 personas,BOULEVARD,Gustavo Díaz Ordaz,13391,15,LA ESCONDIDA,22106,"TIJUANA, Tijuana, BAJA CALIFORNIA",,ATENCIONACLIENTES@YZA.MX,WWW.YZA.MX,Fijo,-116.98122925,32.50743843,CENTRO Y PLAZA COMERCIAL,PLAZA BONITA,15
02004464112000641002010716S3,6286368,FARMACIAS YZA SUC 1080 SANCHEZ TABOADA,FARMACON SA DE CV,Farmacias sin minisúper,6 a 10 personas,AVENIDA,Sánchez Taboada,9211,2,SÁNCHEZ TABOADA,22185,"TIJUANA, Tijuana, BAJA CALIFORNIA",,ATENCIONACLIENTES@YZA.MX,WWW.YZA.MX,Fijo,-116.96565700,32.46084220,,,
02004464112002161001010716S0,6284961,FARMACIAS YZA SUC 1086 TIJUANA JARDIN DORADO,FARMACON SA DE CV,Farmacias sin minisúper,0 a 5 personas,BOULEVARD,Héctor Terán Terán,2603,,JARDÍN DORADO,22200,"TIJUANA, Tijuana, BAJA CALIFORNIA",,ATENCIONACLIENTES@YZA.MX,WWW.YZA.MX,Fijo,-116.89058695,32.52371011,,,
02002464112001261001010716S3,6391385,FARMACIAS YZA SUC 1161 ANAHUAC MEXICALI,FARMACON SA DE CV,Farmacias sin minisúper,6 a 10 personas,BOULEVARD,ANÁHUAC,1399,,CASA MAGNA,21354,"MEXICALI, Mexicali, BAJA CALIFORNIA",,ATENCIONACLIENTES@YZA.MX,WWW.YZA.MX,Fijo,-115.47559567,32.59135980,,,
02002464112001271001010716S2,6391388,FARMACIAS YZA SUC 1166 SAN ANGEL MEXICALI,FARMACON SA DE CV,Farmacias sin minisúper,6 a 10 personas,AVENIDA,RÍO SAN ÁNGEL,199,,VALLE DE PUEBLA,21384,"MEXICALI, Mexicali, BAJA CALIFORNIA",,ATENCIONACLIENTES@YZA.MX,WWW.YZA.MX,Fijo,-115.36875184,32.57510348,,,
02002464112001251001010716S4,6391389,FARMACIAS YZA SUC 1168 ALTAMIRANO MEXICALI,FARMACON SA DE CV,Farmacias sin minisúper,0 a 5 personas,CALLE,IGNACIO MANUEL ALTAMIRANO,255,,PRIMERA SECCIN,21100,"MEXICALI, Mexicali, BAJA CALIFORNIA",,ATENCIONACLIENTES@YZA.MX,WWW.YZA.MX,Fijo,-115.49123422,32.66223126,,,
02002464112001241001010716S5,6285011,FARMACIAS YZA SUC 1180 ORIZABA,FARMACON SA DE CV,Farmacias sin minisúper,0 a 5 personas,CALZADA,HEROICO COLEGIO MILITAR,1901,,LOMALINDA,21135,"MEXICALI, Mexicali, BAJA CALIFORNIA",,ATENCIONACLIENTES@YZA.MX,WWW.YZA.MX,Fijo,-115.50571868,32.65282904,,,
02003464112000112000010716S7,6715041,FARMACIAS YZA SUC 1186 TECATE,FARMACON SA DE CV,Farmacias sin minisúper,6 a 10 personas,AVENIDA,BENITO JUÁREZ,11,1,CENTRO,21400,"TECATE, Tecate, BAJA CALIFORNIA",,ATENCIONACLIENTES@YZA.MX,WWW.YZA.MX,Fijo,-116.63263433,32.57317426,,,
02005464111000441011010716S7,6730032,FARMACIAS YZA SUC 1197 ROSARITO,FARMACON SA DE CV,Farmacias sin minisúper,6 a 10 personas,BOULEVARD,La Fuente,1,1,VILLA DEL MAR,22710,"PLAYAS DE ROSARITO, Playas de Rosarito, BAJA CALIFORNIA",,ATENCIONACLIENTES@YZA.MX,WWW.YZA.MX,Fijo,-117.05940249,32.35662837,,,
02003464111000271011010716S3,6788656,FARMACIAS YZA SUC 1202 TECATE CENTRO,FARMACON SA DE CV,Farmacias sin minisúper,0 a 5 personas,CALLE,PRESIDENTE LÁZARO CÁRDENAS,13,,CENTRO,21400,"TECATE, Tecate, BAJA CALIFORNIA",,ATENCIONACLIENTES@YZA.MX,WWW.YZA.MX,Fijo,-116.62699589,32.57247141,,,
02004464112002782010010716S3,6764620,FARMACIAS YZA SUC 1203 LAS GLORIAS,FARMACON SA DE CV,Farmacias sin minisúper,0 a 5 personas,CALLE,CUAUHTÉMOC SUR,10101,,SAN ANTONIO DE LOS BUENOS,22563,"TIJUANA, Tijuana, BAJA CALIFORNIA",,ATENCIONACLIENTES@YZA.MX,WWW.YZA.MX,Fijo,-117.01536883,32.44507312,,,
02004464112001322002010716S9,156388,FARMACIAS YZA SUC 1207 TIJUANA RIO,,Farmacias sin minisúper,6 a 10 personas,CALLE,Independencia,9379,2,ZONA URBANA RÍO TIJUANA,22010,"TIJUANA, Tijuana, BAJA CALIFORNIA",,ATENCIONACLIENTES@YZA.MX,WWW.YZA.MX,Fijo,-117.02397205,32.52802966,,,
02004464111011731000010716S1,9472631,FARMACIAS YZA SUC 1208 TIJUANA GARITA DE OTAY,FARMACON SA DE CV,Farmacias sin minisúper,6 a 10 personas,BOULEVARD,Alberto Limón Padilla,1099,8,OTAY VISTA,22450,"TIJUANA, Tijuana, BAJA CALIFORNIA",,ATENCIONACLIENTES@YZA.MX,WWW.YZA.MX,Fijo,-116.93831076,32.53407557,,,
02004464111006951001010716S2,6786227,FARMACIAS YZA SUC 1209 TIJUANA CATEDRAL CENTRO,FARMACON SA DE CV,Farmacias sin minisúper,0 a 5 personas,CALLE,Benito Juárez (Segunda),7995,,CENTRO,22000,"TIJUANA, Tijuana, BAJA CALIFORNIA",,ATENCIONACLIENTES@YZA.MX,WWW.YZA.MX,Fijo,-117.03944445,32.53514344,,,
03008464111001642100010716S2,6728888,FARMACIAS YZA SUC 1375 MODERNA ROSARITO,FARMACON SA DE CV,Farmacias sin minisúper,6 a 10 personas,BOULEVARD,Benito Juárez,32,,ROSARITO,22710,"PLAYAS DE ROSARITO, Playas de Rosarito, BAJA CALIFORNIA",,ATENCIONACLIENTES@YZA.MX,WWW.YZA.MX,Fijo,-117.05940455,32.35657710,,,
02002464111004061011010716S6,6782642,FARMACIAS YZA SUC 1380 SANTO DOMINGO,FARMACON SA DE CV,Farmacias sin minisúper,0 a 5 personas,CALZADA,INDEPENDENCIA,2050,,LA RIVIERA ORIENTE,21298,"MEXICALI, Mexicali, BAJA CALIFORNIA",,ATENCIONACLIENTES@YZA.MX,WWW.YZA.MX,Fijo,-115.40834137,32.63771111,CENTRO Y PLAZA COMERCIAL,CENTRO Y PLAZA COMERCIAL SIN NOMBRE,SN
02002464112001622000010716S6,6796298,FARMACIAS YZA SUC 1396 CALLE 42,FARMACON SA DE CV,Farmacias sin minisúper,6 a 10 personas,AVENIDA,DURANGO,4109,,PROGRESO,21326,"MEXICALI, Mexicali, BAJA CALIFORNIA",,ATENCIONACLIENTES@YZA.MX,WWW.YZA.MX,Fijo,-115.52536890,32.65956403,,,
02004464111006941011010716S3,6786226,FARMACIAS YZA SUC 1398 CARRUSEL,FARMACON SA DE CV,Farmacias sin minisúper,6 a 10 personas,AVENIDA,Ramón Alanid,15601,,LAS BRISAS,22150,"TIJUANA, Tijuana, BAJA CALIFORNIA",,ATENCIONACLIENTES@YZA.MX,WWW.YZA.MX,Fijo,-116.96021170,32.49766113,,,
02002464111004471001010716S7,6871807,FARMACIAS YZA SUC 1406 FF RIO PRESIDIO,FARMACON SA DE CV,Farmacias sin minisúper,6 a 10 personas,PROLONGACION,RÍO PRESIDIO,1300,,INDEPENDENCIA,21290,"MEXICALI, Mexicali, BAJA CALIFORNIA",,ATENCIONACLIENTES@YZA.MX,WWW.YZA.MX,Fijo,-115.42315740,32.63077119,,,
02004464111008021001010716S2,6873562,FARMACIAS YZA SUC 1408 COLINAS DE CALIFORNIA,FARMACON SA DE CV,Farmacias sin minisúper,6 a 10 personas,CALLE,La Paz,8701,,COLINAS DE CALIFORNIA,22647,"TIJUANA, Tijuana, BAJA CALIFORNIA",,ATENCIONACLIENTES@YZA.MX,WWW.YZA.MX,Fijo,-116.96761829,32.49859323,,,
02002464111004421001010716S2,6871769,FARMACIAS YZA SUC 1409 FF CALLE D,FARMACON SA DE CV,Farmacias sin minisúper,0 a 5 personas,CALLE,DOCTOR GASTON SALAZAR (D),149,,SEGUNDA SECCION,21100,"MEXICALI, Mexicali, BAJA CALIFORNIA",,ATENCIONACLIENTES@YZA.MX,WWW.YZA.MX,Fijo,-115.47339989,32.66571979,,,
02004464111008211001010716S9,6871767,FARMACIAS YZA SUC 1411 SANTA MARIA,,Farmacias sin minisúper,6 a 10 personas,AVENIDA,LAS FUENTES,0,,HACIENDA SANTA MARIA,22244,"TIJUANA, Tijuana, BAJA CALIFORNIA",,ATENCIONACLIENTES@YZA.MX,WWW.YZA.MX,Fijo,-116.84527188,32.46976469,,,
02002464111004451001010716S9,6871770,FARMACIAS YZA SUC 1429 FF GOMEZ MORIN,FARMACON SA DE CV,Farmacias sin minisúper,6 a 10 personas,CALZADA,GÓMEZ MORÍN,1199,,VILLA RESIDENCIAL VENECIA,21353,"MEXICALI, Mexicali, BAJA CALIFORNIA",,ATENCIONACLIENTES@YZA.MX,WWW.YZA.MX,Fijo,-115.46827317,32.59569194,,,
02004464111008221001010716S8,6871810,FARMACIAS YZA SUC 1442 VILLA,FARMACON SA DE CV,Farmacias sin minisúper,0 a 5 personas,CALZADA,GENERAL LÁZARO CÁRDENAS,23698,,FRANCISCO VILLA,22236,"TIJUANA, Tijuana, BAJA CALIFORNIA",,ATENCIONACLIENTES@YZA.MX,WWW.YZA.MX,Fijo,-116.86520517,32.48645053,,,
02004464111008141001010716S8,6881723,FARMACIAS YZA SUC 1445 ROSAS,FARMACON SA DE CV,Farmacias sin minisúper,0 a 5 personas,CALLE,PRIMAVERA (PRIMERA),170,,CONTRERAS,22106,"TIJUANA, Tijuana, BAJA CALIFORNIA",,ATENCIONACLIENTES@YZA.MX,WWW.YZA.MX,Fijo,-116.96764204,32.49860707,,,
02004464111008241001010716S6,6871808,FARMACIAS YZA SUC 1446 CASABLANCA,FARMACON SA DE CV,Farmacias sin minisúper,0 a 5 personas,CALLE,CASA BLANCA,14480,,LOS LOBOS,22207,"TIJUANA, Tijuana, BAJA CALIFORNIA",,ATENCIONACLIENTES@YZA.MX,WWW.YZA.MX,Fijo,-116.89810542,32.50185899,,,
02004464111008031001010716S1,6873561,FARMACIAS YZA SUC 1F01 COLINAS DE LA PRESA,FARMACON SA DE CV,Farmacias sin minisúper,0 a 5 personas,CALLE,OTRO,17516,,COLINAS DE LA PRESA,22125,"TIJUANA, Tijuana, BAJA CALIFORNIA",,ATENCIONACLIENTES@YZA.MX,WWW.YZA.MX,Fijo,-116.93233235,32.44147729,CENTRO Y PLAZA COMERCIAL,CENTRO Y PLAZA COMERCIAL SIN NOMBRE,3 Y 4
02004464111008001001010716S4,6885783,FARMACIAS YZA SUC 1F10 VERONA,FARMACON SA DE CV,Farmacias sin minisúper,6 a 10 personas,BOULEVARD,FRANCISCO ZARCO,8402,,VERONA,22667,"TIJUANA, Tijuana, BAJA CALIFORNIA",,ATENCIONACLIENTES@YZA.MX,WWW.YZA.MX,Fijo,-117.03803698,32.45060679,,,
02004464112001242002010716S9,6389784,FARMACIAS YZA SUC 1F13 CLINICA,FARMACON SA DE CV,Farmacias sin minisúper,6 a 10 personas,BOULEVARD,GUSTAVO DÍAZ ORDAZ,1902,9,LAS HUERTAS 5TA SECCION,22116,"TIJUANA, Tijuana, BAJA CALIFORNIA",,ATENCIONACLIENTES@YZA.MX,WWW.YZA.MX,Fijo,-116.94107567,32.48446389,,,
02004464111008081001010716S6,6877678,FARMACIAS YZA SUC 1F14 PRINCIPAL,FARMACON SA DE CV,Farmacias sin minisúper,0 a 5 personas,CALLE,QIMBUMBO,24902,,FLORIDO 1SECCION,22237,"TIJUANA, Tijuana, BAJA CALIFORNIA",,ATENCIONACLIENTES@YZA.MX,WWW.YZA.MX,Fijo,-116.86651326,32.47056847,,,
02004464111010792000010716S4,9224415,FARMACIAS YZA SUC 1F15 MIRADOR,FARMACON SA DE CV,Farmacias sin minisúper,0 a 5 personas,BOULEVARD,MIRADOR,577,,EL MIRADOR,22520,"TIJUANA, Tijuana, BAJA CALIFORNIA",,ATENCIONACLIENTES@YZA.MX,WWW.YZA.MX,Fijo,-117.09032486,32.53349919,,,
02003464111000331001010716S5,6873564,FARMACIAS YZA SUC 1F22 EL DESCANSO,FARMACON SA DE CV,Farmacias sin minisúper,6 a 10 personas,CALLE,Misión de Mulegé,101,,EL DESCANSO,21478,"TECATE, Tecate, BAJA CALIFORNIA",,ATENCIONACLIENTES@YZA.MX,WWW.YZA.MX,Fijo,-116.63286509,32.57346938,,,
02002464111004401001010716S4,6874261,FARMACIAS YZA SUC 1F24 ANGELES DE PUEBLA,FARMACON SA DE CV,Farmacias sin minisúper,6 a 10 personas,CALLE,HEROICA DE PUEBLA,0,,ANGELES DE PUEBLA,21395,"MEXICALI, Mexicali, BAJA CALIFORNIA",,ATENCIONACLIENTES@YZA.MX,WWW.YZA.MX,Fijo,-115.33641011,32.56566634,,,
02004464111011741000010716S0,9486662,FARMACIAS YZA SUC 1F48 INSURGENTES,FARMACON SA DE CV,Farmacias sin minisúper,0 a 5 personas,BOULEVARD,BLVD. BENITO JUAREZ,140,,CENTRO INSURGENTES,22457,"TIJUANA, Tijuana, BAJA CALIFORNIA",,ATENCIONACLIENTES@YZA.MX,WWW.YZA.MX,Fijo,-117.04752200,32.49793100,,,
02004464111011771000010716S7,9486342,FARMACIAS YZA SUC 1F58 GAYMITAS,FARMACON SA DE CV,Farmacias sin minisúper,0 a 5 personas,BOULEVARD,BLVD. TECNOLOGICO MZ. 20,,,GUAYMITAS,22457,"TIJUANA, Tijuana, BAJA CALIFORNIA",,ATENCIONACLIENTES@YZA.MX,WWW.YZA.MX,Fijo,-116.97088700,32.52975800,,,
02004464111011781000010716S6,9486516,FARMACIAS YZA SUC 1F59 LAS GARZAS,FARMACON SA DE CV,Farmacias sin minisúper,0 a 5 personas,BOULEVARD,BLVD. AGUSTIN OLACHEA AVILES,4460,1,LAS GARZAS,22457,"TIJUANA, Tijuana, BAJA CALIFORNIA",,ATENCIONACLIENTES@YZA.MX,WWW.YZA.MX,Fijo,-117.05058500,32.49735800,,,
02004464111011791000010716S5,9486517,FARMACIAS YZA SUC 1F63 ALTA TENSION,FARMACON SA DE CV,Farmacias sin minisúper,0 a 5 personas,BOULEVARD,BLVD. FORJADORES MZ. 111 LOTE 22110 DEPARTAMENTO 8,111,,SANTA ROSA,22457,"TIJUANA, Tijuana, BAJA CALIFORNIA",,ATENCIONACLIENTES@YZA.MX,WWW.YZA.MX,Fijo,-116.86430100,32.46230700,,,
02002464111006621000010716S5,9486663,FARMACIAS YZA SUC 1F64 LAS VEREDAS,FARMACON SA DE CV,Farmacias sin minisúper,0 a 5 personas,CALLE,LA FLORESTA,,,LAS VEREDAS,21225,"MEXICALI, Mexicali, BAJA CALIFORNIA",,ATENCIONACLIENTES@YZA.MX,WWW.YZA.MX,Fijo,-115.39554900,32.65421000,,,
02004464111011801000010716S2,9475983,FARMACIAS YZA SUC 1F68 PORTICOS,FARMACON SA DE CV,Farmacias sin minisúper,0 a 5 personas,CALLE,PASEO DEL GUAYCURA,20442,,AMPLIACION GUAYCURA,22214,"TIJUANA, Tijuana, BAJA CALIFORNIA",,ATENCIONACLIENTES@YZA.MX,WWW.YZA.MX,Fijo,-116.91968535,32.50960887,CENTRO Y PLAZA COMERCIAL,FARMACIAS SIN MINISUPER SIN NOMBRE,1
02002464111006631000010716S4,9486202,FARMACIAS YZA SUC 1F74 LORETO,FARMACON SA DE CV,Farmacias sin minisúper,0 a 5 personas,CALLE,BENITO JUAREZ,0,,CENTRO,21000,"MEXICALI, Mexicali, BAJA CALIFORNIA",,ATENCIONACLIENTES@YZA.MX,WWW.YZA.MX,Fijo,-115.39554900,32.65421000,,,
02004464111011821000010716S0,9475318,FARMACIAS YZA SUC 1F77 NATURA,FARMACON SA DE CV,Farmacias sin minisúper,6 a 10 personas,AVENIDA,VISTAS DEL SOL,0,,NATURA,22165,"TIJUANA, Tijuana, BAJA CALIFORNIA",,ATENCIONACLIENTES@YZA.MX,WWW.YZA.MX,Fijo,-116.92249812,32.36463751,,,
02002464111006641000010716S3,9486518,FARMACIAS YZA SUC 1F78 ARCOS DEL SOL,FARMACON SA DE CV,Farmacias sin minisúper,0 a 5 personas,BOULEVARD,HIDALGO,0,,ARCOS DEL SOL,21000,"MEXICALI, Mexicali, BAJA CALIFORNIA",,ATENCIONACLIENTES@YZA.MX,WWW.YZA.MX,Fijo,-115.39554900,32.65421000,,,
02004464111011831000010716S9,9485475,FARMACIAS YZA SUC 1F84 MIGUEL ALEMAN,FARMACON SA DE CV,Farmacias sin minisúper,0 a 5 personas,CALLE,SERDAN Y 13 DE SEPTIEMBRE,0,,MIGUEL ALEMAN,22000,"TIJUANA, Tijuana, BAJA CALIFORNIA",,ATENCIONACLIENTES@YZA.MX,WWW.YZA.MX,Fijo,-116.94346000,32.45889600,,,
02002464111006661000010716S1,9475319,FARMACIAS YZA SUC 1I01 DEL ROBLE,FARMACON SA DE CV,Farmacias sin minisúper,0 a 5 personas,AVENIDA,PINARES,4003,,VILLA DEL ROBLE,21395,"MEXICALI, Mexicali, BAJA CALIFORNIA",,ATENCIONACLIENTES@YZA.MX,WWW.YZA.MX,Fijo,-115.35790898,32.60286354,,,
02004464111011851000010716S7,9485478,FARMACIAS YZA SUC 1I02 MEXICO,FARMACON SA DE CV,Farmacias sin minisúper,0 a 5 personas,CALLE,COLIMA ESQ. MEXICO,1500,,DOMINGO CARBALLO FELIX,22457,"TIJUANA, Tijuana, BAJA CALIFORNIA",,ATENCIONACLIENTES@YZA.MX,WWW.YZA.MX,Fijo,-117.05058500,32.49735800,,,
02004464111011861000010716S6,9472633,FARMACIAS YZA SUC 1I05 NUEVO AMANECER,FARMACON SA DE CV,Farmacias sin minisúper,0 a 5 personas,CALLE,DEL MIRADOR,19901,3,NATURA SECCION AMANECER,22000,"TIJUANA, Tijuana, BAJA CALIFORNIA",,ATENCIONACLIENTES@YZA.MX,WWW.YZA.MX,Fijo,-116.91759323,32.36351859,,,
02004464111011871000010716S5,9475320,FARMACIAS YZA SUC 1I07 DIAZ ORDAZ,FARMACON SA DE CV,Farmacias sin minisúper,0 a 5 personas,BOULEVARD,Gustavo Díaz Ordaz,17717,20,GARCIA,22123,"TIJUANA, Tijuana, BAJA CALIFORNIA",,ATENCIONACLIENTES@YZA.MX,WWW.YZA.MX,Fijo,-116.91666501,32.45538891,,,
02002464111006671000010716S0,9486660,FARMACIAS YZA SUC 1I20 GUERRERO,FARMACON SA DE CV,Farmacias sin minisúper,0 a 5 personas,CALLE,PADRE E. KINO,1465,,VICENTE GUERRERO,23020,"MEXICALI, Mexicali, BAJA CALIFORNIA",,ATENCIONACLIENTES@YZA.MX,WWW.YZA.MX,Fijo,-115.39554900,32.65421000,,,
02005464111001001000010716S8,9481846,FARMACIAS YZA SUC 1I23 PESCADERO,FARMACON SA DE CV,Farmacias sin minisúper,0 a 5 personas,BOULEVARD,CARRETERA FEDERAL LA PAZ-LOS CABOS,,1,PESCADERO,22703,"PLAYAS DE ROSARITO, Playas de Rosarito, BAJA CALIFORNIA",,ATENCIONACLIENTES@YZA.MX,WWW.YZA.MX,Fijo,-117.05940576,32.35654689,,,
02004464111012131000010716S3,9486339,FARMACIAS YZA SUC 9004 MUJICA,FARMACON SA DE CV,Farmacias sin minisúper,0 a 5 personas,BOULEVARD,FRANCISCO MUJICA,0,,INDECO,22457,"TIJUANA, Tijuana, BAJA CALIFORNIA",,ATENCIONACLIENTES@YZA.MX,WWW.YZA.MX,Fijo,-117.08565200,32.49956300,,,
02004464111012161000010716S0,9485547,FARMACIAS YZA SUC 9029 MEXICO Y 17,FARMACON SA DE CV,Farmacias sin minisúper,0 a 5 personas,CALLE,CALLEJON MEXICO B ENTRE CALLE 16 Y 17,1609,,FEDERAL,22245,"TIJUANA, Tijuana, BAJA CALIFORNIA",,ATENCIONACLIENTES@YZA.MX,WWW.YZA.MX,Fijo,-116.85972300,32.46074500,,,
02004464111012171000010716S9,9475645,FARMACIAS YZA SUC 9030 CALAFIA,FARMACON SA DE CV,Farmacias sin minisúper,6 a 10 personas,CALLE,Calafia,329,,POPULAR 89,22812,"ENSENADA, Ensenada, BAJA CALIFORNIA",,ATENCIONACLIENTES@YZA.MX,WWW.YZA.MX,Fijo,-116.56726199,31.89546617,,,
02004464111012181000010716S8,9481980,FARMACIAS YZA SUC 9068 ABETO,FARMACON SA DE CV,Farmacias sin minisúper,6 a 10 personas,CALLE,Del Ahuehuete,4302,,URBIQUINTA,22564,"TIJUANA, Tijuana, BAJA CALIFORNIA",,ATENCIONACLIENTES@YZA.MX,WWW.YZA.MX,Fijo,-117.06294531,32.44354756,,,
02002464111006781000010716S7,9475651,FARMACIAS YZA SUC 9072 ELECTRICISTAS,FARMACON SA DE CV,Farmacias sin minisúper,0 a 5 personas,AVENIDA,Electricista,1700,,LIBERTAD,21030,"MEXICALI, Mexicali, BAJA CALIFORNIA",,ATENCIONACLIENTES@YZA.MX,WWW.YZA.MX,Fijo,-115.46030182,32.64701681,,,
02004464111012071000010716S1,9474216,FARMACIAS YZA SUC LOS PINOS,FARMACON SA DE CV,Farmacias sin minisúper,0 a 5 personas,CALLE,Los Pinos de Nares,9051,1,PINOS NAREZ,22127,"TIJUANA, Tijuana, BAJA CALIFORNIA",,ATENCIONACLIENTES@YZA.MX,WWW.YZA.MX,Fijo,-116.93371973,32.46991217,,,
02002464111003361000000000U1,89347,FARMACOS COST,,Farmacias sin minisúper,0 a 5 personas,CALLE,BERNARDO REYES,0,0,ALIANZA PARA LA PRODUCCION,21050,"MEXICALI, Mexicali, BAJA CALIFORNIA",6865657672,,,Fijo,-115.40292965,32.66598030,,,
02001464111003431000000000M4,11808560,FARMACY DEL MAR,,Farmacias sin minisúper,0 a 5 personas,AVENIDA,RUIZ,55,,CENTRO,22800,"ENSENADA, Ensenada, BAJA CALIFORNIA",,,,Fijo,-116.62934329,31.86419659,,,
02002464111005101000000000U9,6972885,FARMAGEN,,Farmacias sin minisúper,6 a 10 personas,CARRETERA,EJ PUEBLA ESTATAL NUMERO 2,0,0,MICHOACAN DE OCAMPO,21700,"MICHOACÁN DE OCAMPO, Mexicali, BAJA CALIFORNIA",,,,Fijo,-115.30703671,32.46726676,,,
02002464111004811000000000U4,8797623,FARMAGEN FARMACIO,,Farmacias sin minisúper,0 a 5 personas,CALLE,FELIPA VELAZQUEZ VIUDA DE ARELLANO SIERRA MADRE,1199,0,CONJUNTO URBANO ESPERANZA,21350,"MEXICALI, Mexicali, BAJA CALIFORNIA",,,,Fijo,-115.46963429,32.61665410,,,
02002464111007191000000000S8,10507553,FARMAHORRO,,Farmacias sin minisúper,0 a 5 personas,CALLE,RIO CULIACAN,0,,PRO HOGAR,21240,"MEXICALI, Mexicali, BAJA CALIFORNIA",,,,Fijo,-115.43294513,32.65504985,,,
02002464111005002000000000S9,8346587,FARMAICIA SALUD ES VIDA,,Farmacias sin minisúper,6 a 10 personas,CALZADA,L D COLOSIO MURRIETA,3300,,MISION DE SAN IGNACIO,21137,"MEXICALI, Mexicali, BAJA CALIFORNIA",,,,Fijo,-115.52970090,32.65240366,,,
02004464111001721000000000U4,146802,FARMAPLUS,,Farmacias sin minisúper,0 a 5 personas,BOULEVARD,DE LOS INSURGENTES,2120,14,CAPISTRANO,22223,"TIJUANA, Tijuana, BAJA CALIFORNIA",6643834670,,,Fijo,-116.92139936,32.47760035,,,
02001464112000372001000000U1,69629,FARMAUCETICA DEL PUERTO LIZ,FARMAUCETICA DEL PUERTO SA DE CV,Farmacias con minisúper,11 a 30 personas,AVENIDA,GASTELUM,630,1,ZONA CENTRO,22800,"ENSENADA, Ensenada, BAJA CALIFORNIA",,,,Fijo,-116.62388230,31.86836788,,,
02002464111007271000000000U8,9788203,FD FARMACIA,,Farmacias sin minisúper,0 a 5 personas,CALLE,BAHIA LUCERNA,2901,,CARLOS SALINAS,21137,"MEXICALI, Mexicali, BAJA CALIFORNIA",6865142298,,,Fijo,-115.52270687,32.65024789,,,
02004464111011151000021095S2,9404099,FERTIFARMA TIJUANA,FERTIFARMA SA DE CV,Farmacias sin minisúper,0 a 5 personas,CALLE,PADILLA,8800,417,ZONA URBANA RIO TIJUANA,22010,"TIJUANA, Tijuana, BAJA CALIFORNIA",,INFORMES@FERTIFARMA.COM,WWW.FERTIFARMA.COM,Fijo,-117.02981023,32.54027710,PASAJE Y ANDADOR COMERCIAL,PLAZA VIVA TIJUANA,417
02004464111009863000038352S6,8723875,FLORIDO,DISTRIBUIDORA DE MIS FARMACIAS SAPI DE CV,Farmacias sin minisúper,0 a 5 personas,BOULEVARD,WAHOO,9904,,EL FLORIDO,22237,"TIJUANA, Tijuana, BAJA CALIFORNIA",,FLORIDO@DEMISFARMACIAS.COM,WWW.DEMISFARMACIAS.COM,Fijo,-116.87426788,32.46740373,,,
02001464111002753000038352S2,8723611,FRANCISCO ZARCO,DISTRIBUIDORA DE MIS FARMACIAS SAPI DE CV,Farmacias sin minisúper,0 a 5 personas,CALLE,COLINAS RIVERSIDE,390,,EL SAUZAL,22760,"EL SAUZAL DE RODRÍGUEZ, Ensenada, BAJA CALIFORNIA",,ZARCO@DEMISFARMACIAS.COM,WWW.DEMISFARMACIAS.COM,Fijo,-116.69421604,31.89212442,,,
02004464111009672000038352S1,8723429,GARITA DE OTAY,DISTRIBUIDORA DE MIS FARMACIAS SAPI DE CV,Farmacias sin minisúper,0 a 5 personas,AVENIDA,JOSEFINA RENDON,366,,NUEVA TIJUANA,22435,"TIJUANA, Tijuana, BAJA CALIFORNIA",,GARITA@DEMISFARMACIAS.COM,WWW.DEMISFARMACIAS.COM,Fijo,-116.93698730,32.54473326,,,
02002464112001571001000000U5,6759278,GI FARMACIAS DE MEXICO,,Farmacias con minisúper,0 a 5 personas,AVENIDA,SATURNO,898,,VALLE DE LAS MISIONES,21139,"MEXICALI, Mexicali, BAJA CALIFORNIA",,,,Fijo,-115.56048900,32.63231470,,,
02002464112002571000000000U4,11661656,GO FARMACIAS,,Farmacias con minisúper,0 a 5 personas,CALLE,AGUSTIN MELGAR,0,154,PRIMERA SECCION,21100,"MEXICALI, Mexicali, BAJA CALIFORNIA",,,,Fijo,-115.49500730,32.66313273,,,
02007464111000042000000000U9,10450138,GO FARMACY,,Farmacias sin minisúper,6 a 10 personas,AVENIDA,MALECON,56,,ZONA CENTRO,21850,"SAN FELIPE                                                                                                    , San Felipe, BAJA CALIFORNIA",,SOMOSPHARMACY@GMAIL.COM,WWW.SOMOSGOPHARMACY,Fijo,-114.83266579,31.02393593,,,
02002464111006831000000000U0,11256312,GO PHARMACY,,Farmacias sin minisúper,0 a 5 personas,AVENIDA,16 DE SEPTIEMBRE B,0,,VICENTE GUERRERO LOS ALGODONES,21970,"VICENTE GUERRERO (ALGODONES), Mexicali, BAJA CALIFORNIA",,,,Fijo,-114.73094741,32.71583938,,,
02004464111009541000038352S8,8723289,GRANJAS FAMILIARES,DISTRIBUIDORA DE MIS FARMACIAS SAPI DE CV,Farmacias sin minisúper,0 a 5 personas,CALLE,CALLE DEL TRIGO,,,GRANJAS FAMILIARES,22203,"TIJUANA, Tijuana, BAJA CALIFORNIA",,GRANJAS@DEMISFARMACIAS.COM,WWW.DEMISFARMACIAS.COM,Fijo,-116.88574315,32.52445537,,,
02004464111009132000000000U6,6959156,GRUPO FARMACEUTICO PREMIER,,Farmacias sin minisúper,0 a 5 personas,CALLE,BENITO JUAREZ SEGUNDA,7617,0,ZONA CENTRO,22000,"TIJUANA, Tijuana, BAJA CALIFORNIA",,,,Fijo,-117.04447611,32.53470371,,,
02002464111007321000000442S1,10631191,GRUPO LIQUIS,GRUPO LIQUIS SA DE CV,Farmacias con minisúper,31 a 50 personas,CALZADA,FRANCISCO L MONTEJANO,1677,,INSURGENTES OESTE,21040,"MEXICALI, Mexicali, BAJA CALIFORNIA",,,,Fijo,-115.45236800,32.63459974,,,
02002464111007811000000000S1,11767439,GRUPO MEDICO SANTA CLARA,GRUPO MEDICO SANTA CLARA SA DE CV,Farmacias sin minisúper,0 a 5 personas,AVENIDA,Avenida de las Heráldicas,0,,VILLAS DEL REY,,"MEXICALI, Mexicali, BAJA CALIFORNIA",,,,Fijo,-115.48274094,32.59819342,,,
02002464111007451000000000U6,11567970,HAMS PHARMACY,,Farmacias sin minisúper,0 a 5 personas,CALZADA,LICENCIADO VICENTE LOMBARDO TOLEDANO,0,,PASEO DE XOCHIMILCO,21356,"MEXICALI, Mexicali, BAJA CALIFORNIA",6862613931,,,Fijo,-115.47259515,32.60802931,,,
02001464111003401000000000U7,11821406,HEALTH UP,,Farmacias sin minisúper,0 a 5 personas,CALLE,Ensenada,715,0,16 ULBRICH,22830,"ENSENADA, Ensenada, BAJA CALIFORNIA",6461167845,,,Fijo,-116.60677166,31.86752422,,,
02001464111003361000000000U3,11401589,HERDIDAS Y ESTOMAS,,Farmacias sin minisúper,0 a 5 personas,AVENIDA,EL SAUZAL,0,2,NUEVA ENSENADA,22880,"ENSENADA, Ensenada, BAJA CALIFORNIA",,BAJASURGERY@OUTLOOK.COM,,Fijo,-116.60720839,31.85103818,,,
02002464111005041000000000U7,8370306,HIERBAS MEDICINALES DIVINA PROVIVENCIA,,Farmacias sin minisúper,0 a 5 personas,AVENIDA,SEBASTIAN LERDO DE TEJADA,0,0,ZONA CENTRO,21000,"MEXICALI, Mexicali, BAJA CALIFORNIA",,,,Fijo,-115.49160596,32.66023121,,,
02004464111009631000038352S7,8723425,HIPODROMO,DISTRIBUIDORA DE MIS FARMACIAS SAPI DE CV,Farmacias sin minisúper,0 a 5 personas,AVENIDA,DE LAS FERIAS,12625,5,HIPODROMO DOS,22195,"TIJUANA, Tijuana, BAJA CALIFORNIA",,HIPODRMO@DEMISFARMACIAS.COM,WWW.DEMISFARMACIAS.COM,Fijo,-117.00125551,32.50007041,,,
02003621111000341000000000U4,7048074,INMEDICA SA DE CV,FARMACIAS MODERNAS DE TIJUANA SA SA DE CV,Consultorios de medicina general del sector privado,0 a 5 personas,BOULEVARD,NUEVO LEON,0,,LOMA ALTA,21480,"TECATE, Tecate, BAJA CALIFORNIA",,,,Fijo,-116.63360624,32.56603593,,,
02004464111012303000000000U8,10473965,INTEGRA FARMACIA TITAN,QUICK MEDICINE SA DE CV,Farmacias sin minisúper,11 a 30 personas,CALLE,BENITO JUAREZ SEGUNDA,237,2,ZONA CENTRO,22000,"TIJUANA, Tijuana, BAJA CALIFORNIA",,,,Fijo,-117.03511935,32.53569582,,,
02005464112000092000000000U6,143801,INTEGRA FARMACIAS,QUICK FARMACIAS SA DE CV,Farmacias con minisúper,0 a 5 personas,CALLE,NINGUNO,84,,PRIMO TAPIA,22740,"PRIMO TAPIA, Playas de Rosarito, BAJA CALIFORNIA",,FARMATODOLAURITA@LIVE.COM,,Fijo,-116.91605497,32.22135305,,,
02001464112000911000000000U6,9803551,INTERFARMACIA NACIONAL,,Farmacias con minisúper,0 a 5 personas,AVENIDA,BENITO JUAREZ QUINTA,1708,,OBRERA,22830,"ENSENADA, Ensenada, BAJA CALIFORNIA",,,,Fijo,-116.61111293,31.86211991,,,
02004464111012681000000000U7,11490252,IRIS DERMA,,Farmacias sin minisúper,0 a 5 personas,CALLE,NINGUNO,1900,,PLAZA ALAMEDA,22425,"TIJUANA, Tijuana, BAJA CALIFORNIA",,,,Fijo,-116.95409575,32.53130471,CENTRO Y PLAZA COMERCIAL,CENTRO COMERCIAL OTAY,A13
02004464111007541000038352S7,6802420,JARDÍN DORADO,DISTRIBUIDORA DE MIS FARMACIAS SAPI DE CV,Farmacias sin minisúper,0 a 5 personas,BOULEVARD,GRANADOS,1821,,JARDIN DORADO,22200,"TIJUANA, Tijuana, BAJA CALIFORNIA",,JARDIN@DEMISFARMACIAS.COM,WWW.DEMISFARMACIAS.COM,Fijo,-116.89207785,32.52326413,,,
02002464112002531000000000U8,10732308,JARDINES DEL PARAISO,,Farmacias con minisúper,0 a 5 personas,AVENIDA,GENERAL ALVARO OBREGON,862,,ZONA CENTRO,21100,"MEXICALI, Mexicali, BAJA CALIFORNIA",,,,Fijo,-115.48077459,32.66250079,,,
02004464111012631000000000U2,10776099,KINLY,BC FARMA SA DE CV,Farmacias sin minisúper,0 a 5 personas,AVENIDA,RIO TIJUANA,10231,103,ZONA RIO,22010,"TIJUANA, Tijuana, BAJA CALIFORNIA",,KINLYBUOTIQUEDERMATOLOGICO@GMAIL.COM,WWW.KINLY.MX,Fijo,-117.01411056,32.52226220,EDIFICIO COMERCIAL Y DE SERVICIOS,PLAZA LINCOLN,103
02004464111013011000061762S6,11788314,KINLY BOUTIQUE DERMATOLOGICA,BC FARMA SA DE CV,Farmacias sin minisúper,0 a 5 personas,AVENIDA,Río Tijuana,10231,103,ZONA URBANA RIO TIJUANA,22010,"TIJUANA, Tijuana, BAJA CALIFORNIA",,ALEJANDRA@KINLY.MX,WWW.KINLY.MX,Fijo,-117.01421388,32.52219307,CENTRO Y PLAZA COMERCIAL,PLAZA LINCOLN,103
02004464111012981000000000U1,11794673,KLARIX FARMACIAS,,Farmacias sin minisúper,0 a 5 personas,BOULEVARD,Boulevard de las Bellas Artes,19260,,NUEVA TIJUANA,22435,"TIJUANA, Tijuana, BAJA CALIFORNIA",,KLARIXFARMACIASUC2@HOTMAIL.COM,,Fijo,-116.93519209,32.54398745,,,
02004461160006521000000000S3,8112447,LA CASA DEL CHOCOLATE,SUPER FARMACIA CHECK 2013 SA DE CV,Comercio al por menor de dulces y materias primas para repostería,0 a 5 personas,BOULEVARD,NINGUNO,0,7,AEROPUERTO INTERNACIONAL DE TIJUANA,22435,"TIJUANA, Tijuana, BAJA CALIFORNIA",6649069962,805@TURISTORE.COM,,Semifijo,-116.97523795,32.54632453,AEROPUERTO,AEROPUERTO INTERNACIONAL DE TIJUANA,H
02004464111012741000000000U9,10450290,LA ECONOMICA DISTRIBUIDOR FARMACEUTICO,,Farmacias sin minisúper,0 a 5 personas,AVENIDA,AVENIDA EL VERGEL,11,,LOS ALAMOS,22110,"TIJUANA, Tijuana, BAJA CALIFORNIA",,,,Fijo,-116.95956677,32.50999295,,,
02002464111005132000000000U4,6973438,LA GENEROSA FARMACIAS,,Farmacias sin minisúper,0 a 5 personas,CALLE,PASEO DE LAS BARCENAS,0,1,CONDESA,21395,"MEXICALI, Mexicali, BAJA CALIFORNIA",,,,Fijo,-115.34917595,32.59644055,,,
02004464111009661000038352S4,8723428,LA GLORIA,DISTRIBUIDORA DE MIS FARMACIAS SAPI DE CV,Farmacias sin minisúper,0 a 5 personas,CARRETERA,VALE,10032,,LA GLORIA,22645,"TIJUANA, Tijuana, BAJA CALIFORNIA",,GLORIA@DEMISFARMACIAS.COM,WWW.DEMISFARMACIAS.COM,Fijo,-117.01805037,32.44866407,,,
02001621511001141000000000U2,10384746,LABORATORIO JN,FARMACIA JN S DE RL DE CV,Laboratorios médicos y de diagnóstico del sector privado,0 a 5 personas,CALLE,PRINCIPAL,239,,FRANCISCO ZARCO,22750,"FRANCISCO ZARCO (VALLE DE GUADALUPE), Ensenada, BAJA CALIFORNIA",,JNLABORATORIOS@GMAIL.COM,,Fijo,-116.57344948,32.09507302,CENTRO Y PLAZA COMERCIAL,KALIMAN,15
02004621511004271000000000U8,9886145,LABORATORIO Y FARMACIA VIDA LABS,ADAGEM SA DE CV,Laboratorios médicos y de diagnóstico del sector privado,0 a 5 personas,CALLE,CAMINO CUERO DE VENADO,0,13203,RANCHO SANTA CRUZ,22170,"TIJUANA, Tijuana, BAJA CALIFORNIA",,INFO@LABORATORIOVIDALABS.COM,,Fijo,-116.94298862,32.42392687,,,
02004464111009943000038352S6,8724033,LAS DELICIAS,DISTRIBUIDORA DE MIS FARMACIAS SAPI DE CV,Farmacias sin minisúper,0 a 5 personas,AVENIDA,GARCIA,17900,,PASEO LOS REYES,22125,"TIJUANA, Tijuana, BAJA CALIFORNIA",,DELICIAS@DEMISFARMACIAS.COM,WWW.DEMISFARMACIAS.COM,Fijo,-116.92974780,32.45274134,,,
02003464111000421000038352S4,8723225,LAS FERIAS,DISTRIBUIDORA DE MIS FARMACIAS SAPI DE CV,Farmacias sin minisúper,0 a 5 personas,BOULEVARD,SANTA ANITA,495,,MACLOVIO HERRERA,21482,"TECATE, Tecate, BAJA CALIFORNIA",,LASFERIAS@DEMISFARMACIAS.COM,WWW.DEMISFARMACIAS.COM,Fijo,-116.63210755,32.54331880,,,
02004464111009882000038352S6,8723926,LAS TORRES,DISTRIBUIDORA DE MIS FARMACIAS SAPI DE CV,Farmacias sin minisúper,0 a 5 personas,CALLE,UNO PONIENTE,20804,,MAGISTERIAL,22470,"TIJUANA, Tijuana, BAJA CALIFORNIA",,TORRES@DEMISFARMACIAS.COM,WWW.DEMISFARMACIAS.COM,Fijo,-116.90359516,32.54387166,,,
02003464111000361000000000U2,7048607,LAVANDA BOUTIQUE TECATE,,Farmacias sin minisúper,0 a 5 personas,CALLEJON,E,100,348,MODERNA,21450,"TECATE, Tecate, BAJA CALIFORNIA",,LAVANDA.HUERTO@GMAIL.COM,,Fijo,-116.63587215,32.57027321,,,
02004464111000271000000000U1,56303,LEAL,,Farmacias sin minisúper,0 a 5 personas,AVENIDA,JOSE MARIA MORELOS Y PAVON,2059,3,INDEPENDENCIA,22055,"TIJUANA, Tijuana, BAJA CALIFORNIA",,,,Fijo,-117.04542630,32.52189241,,,
02004464111010012000038352S7,8724152,LIBERTAD,DISTRIBUIDORA DE MIS FARMACIAS SAPI DE CV,Farmacias sin minisúper,0 a 5 personas,AVENIDA,GABRIEL HERNANDEZ  10,1065,,LIBERTAD,22300,"TIJUANA, Tijuana, BAJA CALIFORNIA",,LIBERTAD@DEMISFARMACIAS.COM,WWW.DEMISFARMACIAS.COM,Fijo,-117.01471162,32.53749415,,,
02001464111002391000000000U1,6907856,LOGISTICA FARMACEUTICA MOSCATI,LOGISTICA FARMACEUTICA MOSCATI S DE RL DE CV,Farmacias sin minisúper,0 a 5 personas,CALZADA,CORTEZ,1956,2,HIDALGO,22880,"ENSENADA, Ensenada, BAJA CALIFORNIA",,,,Fijo,-116.58842391,31.86275626,,,
02004464111009832000038352S1,8723785,LOMA DORADA,DISTRIBUIDORA DE MIS FARMACIAS SAPI DE CV,Farmacias sin minisúper,0 a 5 personas,BOULEVARD,PASEO DEL GUAYCURA,18701,,AMPLIACION GUAYCURA,22214,"TIJUANA, Tijuana, BAJA CALIFORNIA",,LOMADORADA@DEMISFARMACIAS.COM,WWW.DEMISFARMACIAS.COM,Fijo,-116.91740658,32.49942520,,,
02004464111009592000038352S1,8723398,LOMAS TAURINAS,DISTRIBUIDORA DE MIS FARMACIAS SAPI DE CV,Farmacias sin minisúper,0 a 5 personas,CALLE,CHAPALA,15911,,DEL RIO,22416,"TIJUANA, Tijuana, BAJA CALIFORNIA",,TAURINAS@DEMISFARMACIAS.COM,WWW.DEMISFARMACIAS.COM,Fijo,-116.99440161,32.53142894,,,
02001464111002743000038352S3,8723397,LOMITAS,DISTRIBUIDORA DE MIS FARMACIAS SAPI DE CV,Farmacias sin minisúper,0 a 5 personas,BOULEVARD,GERANIOS,92,,LAS LOMITAS,22815,"ENSENADA, Ensenada, BAJA CALIFORNIA",,LOMITAS@DEMISFARMACIAS.COM,WWW.DEMISFARMACIAS.COM,Fijo,-116.59348049,31.88931128,,,
02004464111013041000000000U3,11728840,LONG LIVING LIFE,,Farmacias sin minisúper,0 a 5 personas,AVENIDA,Avenida de las Américas,3999,0,EL PARAISO,,"TIJUANA, Tijuana, BAJA CALIFORNIA",,,,Fijo,-116.98715120,32.50711061,,,
02002464111007461000000000U5,11027887,LOS REYES,,Farmacias sin minisúper,0 a 5 personas,AVENIDA,MICHOACAN,1384,,PUEBLO NUEVO,21120,"MEXICALI, Mexicali, BAJA CALIFORNIA",,,,Fijo,-115.49913221,32.65625281,,,
02004464111009602000038352S8,8723422,LOS REYES,DISTRIBUIDORA DE MIS FARMACIAS SAPI DE CV,Farmacias sin minisúper,0 a 5 personas,CALLE,GARCIA,10780,,LOS REYES,22125,"TIJUANA, Tijuana, BAJA CALIFORNIA",,LOSREYES@DEMISFARMACIAS.COM,WWW.DEMISFARMACIAS.COM,Fijo,-116.92974780,32.45274134,,,
02002464111002481001000442S8,6282699,MADERO MXLI,GRUPO LIQUIS SA DE CV,Farmacias con minisúper,31 a 50 personas,AVENIDA,FRANCISCO I. MADERO,134,,NUEVA,,"MEXICALI, Mexicali, BAJA CALIFORNIA",,FELIX.JUAN@GRUPO-LIQUIS.COM,,Fijo,-115.46253576,32.66655447,,,
02004464111009993000038352S1,8724150,MARIANO,DISTRIBUIDORA DE MIS FARMACIAS SAPI DE CV,Farmacias sin minisúper,0 a 5 personas,AVENIDA,CAMINO GUADALUPE VICTORIA,22210,,MARIANO MATAMOROS,22234,"TIJUANA, Tijuana, BAJA CALIFORNIA",,MARIANO@DEMISFARMACIAS.COM,WWW.DEMISFARMACIAS.COM,Fijo,-116.87972974,32.47986929,,,
02004464111010232000038352S1,8738182,MARIANO II,DISTRIBUIDORA DE MIS FARMACIAS SAPI DE CV,Farmacias sin minisúper,0 a 5 personas,CALLE,CAMINO GUADALUPE VICTORIA,9102,,MARIANO MATAMOROS,22234,"TIJUANA, Tijuana, BAJA CALIFORNIA",,MARIANO2@DEMISFARMACIAS.COM,WWW.DEMISFARMACIAS.COM,Fijo,-116.87426892,32.47619838,,,
02004464111010802000038352S1,9224416,MATAMOROS,DISTRIBUIDORA DE MIS FARMACIAS SAPI DE CV,Farmacias sin minisúper,0 a 5 personas,AVENIDA,MELCHOR OCAMPO,22652,,MATAMOROS,22204,"TIJUANA, Tijuana, BAJA CALIFORNIA",,MATAMOROS@DEMISFARMACIAS.COM,WWW.DEMISFARMACIAS.COM,Fijo,-116.86444036,32.51965074,CENTRO Y PLAZA COMERCIAL,PLAZA LA CUCHARITA,5
02005464111001101000000000U6,10427542,MED 4 LESS FARMACIA,CROWDER NIEBLAS SA DE CV,Farmacias sin minisúper,0 a 5 personas,BOULEVARD,BENITO JUAREZ,0,,MACHADO NORTE,22703,"PLAYAS DE ROSARITO, Playas de Rosarito, BAJA CALIFORNIA",,,,Fijo,-117.05909080,32.35595282,,,
02005464112000321000000000U9,10445197,MED4LESS PHARMACY,CROWDER NIEBLAS SA DE CV,Farmacias con minisúper,0 a 5 personas,AVENIDA,EMILIANO ZAPATA,1,1,AMPLIACION REFORMA,22704,"PLAYAS DE ROSARITO, Playas de Rosarito, BAJA CALIFORNIA",,,,Fijo,-117.06384466,32.38166720,EDIFICIO COMERCIAL Y DE SERVICIOS,EDIFICIO COMERCIAL Y DE SERVICIOS SIN NOMBRE,SN
02004464111012672000000000U6,9740008,MEDICAL FARMACIA,,Farmacias sin minisúper,6 a 10 personas,AVENIDA,JOSE CLEMENTE OROZCO,2468,2468,ZONA RIO,22320,"TIJUANA, Tijuana, BAJA CALIFORNIA",,MEDICAL.FARMACIA@HOTMAIL.COM,,Fijo,-117.01528822,32.52250809,EDIFICIO COMERCIAL Y DE SERVICIOS,2464,A
02004464111001151000000000U4,55252,MEDICINE STORE,MEDIRAMA SA DE CV,Farmacias sin minisúper,0 a 5 personas,AVENIDA,REVOLUCION,943,0,ZONA CENTRO ,22000,"TIJUANA, Tijuana, BAJA CALIFORNIA",,EMEDICINESTORE@HOTMAIL.COM,,Fijo,-117.03681898,32.53312255,,,
02004464111008152001018821S5,6878554,MEDICINE STORE 3,OPERADORA FARMACEUTICA DE BAJA CALIFORNIA S DE RL DE CV,Farmacias sin minisúper,0 a 5 personas,AVENIDA,REVOLUCIÓN,943,,ZONA CENTRO,,"TIJUANA, Tijuana, BAJA CALIFORNIA",6645421876,OCRUZ@OPEFAR.COM,WWW.FARMACIASLAMASBARATA.COM,Fijo,-117.03701582,32.53492725,,,
02004464111008422001018821S2,6866649,MEDS 4 LESS PHARMACY 6,OPERADORA FARMACEUTICA DE BAJA CALIFORNIA S DE RL DE CV,Farmacias sin minisúper,6 a 10 personas,AVENIDA,REVOLUCIÓN,894,,ZONA CENTRO,,"TIJUANA, Tijuana, BAJA CALIFORNIA",6645421876,OCRUZ@OPEFAR.COM,WWW.FARMACIASLAMASBARATA.COM,Fijo,-117.03674328,32.53438107,,,
02001464112000691000000000U4,6929769,MEGA FARMACIAS DE ENSENADA,,Farmacias con minisúper,0 a 5 personas,AVENIDA,CARRETERA TRANSPENINSULAR,1030,1,BENITO JUAREZ,22790,"RODOLFO SÁNCHEZ TABOADA (MANEADERO), Ensenada, BAJA CALIFORNIA",,MEGAFARMACIASFACTURACION1030@GMAIL.COM,,Fijo,-116.57307687,31.72219642,,,
02001464111003121000000000S1,10593126,MERCADO DE MEDICINAS,,Farmacias sin minisúper,0 a 5 personas,CALLE,OCTAVA,788,5,ZONA CENTRO,22800,"ENSENADA, Ensenada, BAJA CALIFORNIA",,,,Fijo,-116.62288171,31.87021943,,,
02004464112000191000000000U9,145312,MERCADO REYES,,Farmacias con minisúper,0 a 5 personas,CALLE,EUSEBIO KINO,4411,,LOS LOBOS,22207,"TIJUANA, Tijuana, BAJA CALIFORNIA",6646842189,REYESLOBOS1@HOTMAIL.COM,,Fijo,-116.90368987,32.50256205,,,
02002464111001681000000000U4,55187,MG FAMILIARES,,Farmacias sin minisúper,0 a 5 personas,CALZADA,L. D. COLOSIO MURRIETA,741,0,REAL DEL RIO,21137,"MEXICALI, Mexicali, BAJA CALIFORNIA",,,,Fijo,-115.52968665,32.64856601,,,
02002464113001541000000000U6,8112085,MG FARMACIA FAMILIARES,,Farmacias sin minisúper,0 a 5 personas,CALLE,HEROICA DE PUEBLA,0,,ANGELES DE PUEBLA,21620,"MEXICALI, Mexicali, BAJA CALIFORNIA",6862515168,,,Semifijo,-115.33947619,32.56025833,,,
02001464111002041000000291S2,6778886,MI BODEGA SANTA FE 3550,GOYOMA SA DE CV,Farmacias sin minisúper,0 a 5 personas,CARRETERA,TRANSPENINSULAR,0,,NUEVO BAJA CALIFORNIA,,"LÁZARO CÁRDENAS                                                                                               , San Quintín, BAJA CALIFORNIA",,CGEN@GOYOMA.COM,,Fijo,-115.93074380,30.52401934,,,
02002464111003661000000000U4,89812,MI FARMACIA,,Farmacias sin minisúper,0 a 5 personas,AVENIDA,ESQUILO,,,POPULAR CENTINELA,21139,"MEXICALI, Mexicali, BAJA CALIFORNIA",6862223367,RPAREDESESTEBAN@HOTMAIL.COM,,Fijo,-115.57901681,32.64450709,,,
02004464112003781000000000U4,11495731,MINISUPER MAURY,,Farmacias con minisúper,0 a 5 personas,CALLE,PALMERAS,,,LAS TORRES,22470,"TIJUANA, Tijuana, BAJA CALIFORNIA",6631033109,DITRIBUIDORADESALUDMS@HOTMAIL.COM,,Fijo,-116.89450909,32.54899972,,,
02004464111010142000038352S2,8738075,MIRAMAR,DISTRIBUIDORA DE MIS FARMACIAS SAPI DE CV,Farmacias sin minisúper,0 a 5 personas,AVENIDA,MIGUEL INCLAN,3620,,MIRAMAR,22526,"TIJUANA, Tijuana, BAJA CALIFORNIA",,MIRAMAR@DEMISFARMACIAS.COM,WWW.DEMISFARMACIAS.COM,Fijo,-117.08359300,32.51357683,,,
02004464111010091000038352S1,8737617,MORITA,DISTRIBUIDORA DE MIS FARMACIAS SAPI DE CV,Farmacias sin minisúper,0 a 5 personas,CALLE,CIRUELA,9177,,LA MORITA,22245,"TIJUANA, Tijuana, BAJA CALIFORNIA",,MORITA@DEMISFARMACIAS.COM,WWW.DEMISFARMACIAS.COM,Fijo,-116.83908107,32.47457913,,,
02004464111009523000038352S6,8723287,NATURA,DISTRIBUIDORA DE MIS FARMACIAS SAPI DE CV,Farmacias sin minisúper,0 a 5 personas,CALLE,BOSQUES TEMPLARIOS,15001,,NATURA,22165,"TIJUANA, Tijuana, BAJA CALIFORNIA",,NATURA@DEMISFARMACIAS.COM,WWW.DEMISFARMACIAS.COM,Fijo,-116.93938003,32.38620759,,,
02004464111009551000038352S7,8723290,NATURA 2,DISTRIBUIDORA DE MIS FARMACIAS SAPI DE CV,Farmacias sin minisúper,0 a 5 personas,AVENIDA,BOSQUES AZULES,17509,,NATURA,22165,"TIJUANA, Tijuana, BAJA CALIFORNIA",,NATURA2@DEMISFARMACIAS.COM,WWW.DEMISFARMACIAS.COM,Fijo,-116.93246259,32.37574669,,,
02004464111009571000038352S5,8723292,NATURA 3,DISTRIBUIDORA DE MIS FARMACIAS SAPI DE CV,Farmacias sin minisúper,0 a 5 personas,AVENIDA,NATURA,15280,,NATURA,22165,"TIJUANA, Tijuana, BAJA CALIFORNIA",,NATURA3@DEMISFARMACIAS.COM,WWW.DEMISFARMACIAS.COM,Fijo,-116.93529490,32.37966369,,,
02002464111003231000000000U6,148038,NUEVA BOTICA ESTRELLA,,Farmacias sin minisúper,0 a 5 personas,CALLE,SEXTA,0,,GUADALUPE VICTORIA,21720,"CIUDAD GUADALUPE VICTORIA (KILÓMETRO CUARENTA Y TRES), Mexicali, BAJA CALIFORNIA",,,,Fijo,-115.10592542,32.28824112,,,
02004464111009841000038352S2,8723786,OBRERA,DISTRIBUIDORA DE MIS FARMACIAS SAPI DE CV,Farmacias sin minisúper,0 a 5 personas,AVENIDA,CHICAGO,103,,OBRERA,22624,"TIJUANA, Tijuana, BAJA CALIFORNIA",,LAOBRERA@DEMISFARMACIAS.COM,WWW.DEMISFARMACIAS.COM,Fijo,-117.04142194,32.49077002,,,
02004464111007881011052362M0,6802954,OFICINA ADMINISTRATIVA DE SIMILARES,CAZCON SA DE CV,Farmacias sin minisúper,11 a 30 personas,CALLE,WAHOO,10000,0,MARIANO MATAMOROS,22235,"TIJUANA, Tijuana, BAJA CALIFORNIA",,CAZCON2009@HOTMAIL.COM,,Fijo,-116.86419048,32.47378820,CENTRO Y PLAZA COMERCIAL,CENTRO COMERCIAL SANTA FE,102
02004464111003772001018821S5,55342,OFICINA AUXILIAR DE FARMACIA LA MAS BARATA SUC 944,OPERADORA FARMACEUTICA DE BAJA CALIFORNIA S DE RL DE CV,Farmacias sin minisúper,101 a 250 personas,AVENIDA,REVOLUCIÓN,944,,ZONA CENTRO,22000,"TIJUANA, Tijuana, BAJA CALIFORNIA",,OCRUZ@OPEFAR.COM,,Fijo,-117.03665026,32.53353046,,,
02004464111012923000000000S3,10083269,OFICINA DE COORDINACION DE SERVICIO A DOMICILIO,OPERADORA FRARMACEUTICA DE BAJA CALIFORNIA SA DE CV,Farmacias sin minisúper,11 a 30 personas,AVENIDA,MIGUEL NEGRETE,995,2,ZONA CENTRO,22000,"TIJUANA, Tijuana, BAJA CALIFORNIA",,MC@OPEFAR.COM,WWW.FARMACIASLAMASBARAT,Fijo,-117.03356043,32.53315186,,,
02001541211001671000000000S4,101177,OFICINAS DE FARMACIAS PREMIER,,Farmacias con minisúper,0 a 5 personas,CALLE,DELANTE EL ROSARIO,336,5,COSTA AZUL,22890,"ENSENADA, Ensenada, BAJA CALIFORNIA",,FARMAVIDEO@HOTMAIL.COM,,Fijo,-116.59888260,31.85179683,CENTRO Y PLAZA COMERCIAL,PLAZA LUCIA,5
02004464111009732000038352S3,8764846,OJO DE AGUA,DISTRIBUIDORA DE MIS FARMACIAS SAPI DE CV,Farmacias sin minisúper,0 a 5 personas,CARRETERA,EMILIANO ZAPATA,22701,6,VALLE REDONDO,22330,"TIJUANA, Tijuana, BAJA CALIFORNIA",,OJODEAGUA@DEMISFARMACIAS.COM,WWW.DEMISFARMACIAS.COM,Fijo,-116.79093649,32.47422039,,,
02002464112001851000000000U1,8370738,OMNILIFE,,Farmacias con minisúper,0 a 5 personas,CALZADA,LAGUNA XOCHIMILCO,1098,,LAGOS DE XOCHIMILCO,21353,"MEXICALI, Mexicali, BAJA CALIFORNIA",,,,Fijo,-115.47301406,32.60463843,CENTRO Y PLAZA COMERCIAL,CENTRO Y PLAZA COMERCIAL SIN NOMBRE,1
02001464112000591000000000U6,63759,ORANGE PHARMACY,,Farmacias con minisúper,0 a 5 personas,BOULEVARD,LAZARO CARDENAS,609,,ZONA CENTRO,22800,"ENSENADA, Ensenada, BAJA CALIFORNIA",6865475795,,,Fijo,-116.62679201,31.86218247,,HOTEL SANTO TOMAS,6
02002464111006991000000000U2,11345949,ORGANIG FARMACIA,,Farmacias sin minisúper,0 a 5 personas,CALZADA,CUAUHTEMOC AVIACION,0,1037,PROHOGAR,21240,"MEXICALI, Mexicali, BAJA CALIFORNIA",,,,Fijo,-115.42958743,32.65861665,,,
02004464111007361000038352S4,6802310,OTAY,DISTRIBUIDORA DE MIS FARMACIAS SAPI DE CV,Farmacias sin minisúper,0 a 5 personas,AVENIDA,JOS LPEZ PORTILLO ORIENTE,136,,NUEVA TIJUANA,22435,"TIJUANA, Tijuana, BAJA CALIFORNIA",,OTAY@DEMISFARMACIAS.COM,WWW.DEMISFARMACIAS.COM,Fijo,-116.92963382,32.54381580,,,
02004464111009932000038352S9,8724010,PACIFICO,DISTRIBUIDORA DE MIS FARMACIAS SAPI DE CV,Farmacias sin minisúper,0 a 5 personas,BOULEVARD,PACIFICO,8451,,PACIFICO,22643,"TIJUANA, Tijuana, BAJA CALIFORNIA",,PACIFICO@DEMISFARMACIAS.COM,WWW.DEMISFRMACIAS.COM,Fijo,-116.98702046,32.46873754,,,
02002464111002042001000000S8,67998,PAPELERIA Y FARMACIA DEL PUEBLO,,Farmacias sin minisúper,0 a 5 personas,CALLE,DE LA CANDELILLA,,,RIVERA CAMPESTRE,21383,"MEXICALI, Mexicali, BAJA CALIFORNIA",6868423008,CHINANTECA@HOTMAIL.COM,,Fijo,-115.42977492,32.58406199,,,
02004464111011243000000536S7,9433037,PEY FHARMA SIMSA,PEY PHARMA DISTRIBUIDORA SA DE CV,Farmacias sin minisúper,31 a 50 personas,CIRCUITO,BURSÁTIL,9002,,ZONA URBANA RIO TIJUANA,,"TIJUANA, Tijuana, BAJA CALIFORNIA",,MARIA_CELIA_CASTRO@HOTMAIL.COM,,Fijo,-117.02753340,32.53930708,,,
02004464111011252000000536S8,9433038,PEY FHARMA SUC CAFE,PEY PHARMA DISTRIBUIDORA SA DE CV,Farmacias sin minisúper,6 a 10 personas,AVENIDA,DE LA AMISTAD,9049,,ZONA URBANA RIO TIJUANA,,"TIJUANA, Tijuana, BAJA CALIFORNIA",,MARIA_CELIA_CASTRO@HOTMAIL.COM,,Fijo,-117.02847853,32.53870601,,,
02004464111011263000000536S5,9407339,PEY FHARMA SUC EASY,PEY PHARMA DISTRIBUIDORA SA DE CV,Farmacias sin minisúper,6 a 10 personas,AVENIDA,FRONTERA,8980,,ZONA URBANA RIO TIJUANA,,"TIJUANA, Tijuana, BAJA CALIFORNIA",,MARIA_CELIA_CASTRO@HOTMAIL.COM,WWW.PEYFHARMA.COM,Fijo,-117.02902859,32.53963139,EDIFICIO COMERCIAL Y DE SERVICIOS,EASY PARK,SN PISO 1
02004464111010843000000536S5,9320814,PEY FHARMA SUC TORRE,PEY PHARMA DISTRIBUIDORA SA DE CV,Farmacias sin minisúper,0 a 5 personas,AVENIDA,DE LA AMISTAD,9043,301,ZONA URBANA RIO TIJUANA,,"TIJUANA, Tijuana, BAJA CALIFORNIA",,MARIA-CELIA-CASTRO@HOTMAIL.COM,,Fijo,-117.02847485,32.53870153,EDIFICIO COMERCIAL Y DE SERVICIOS,TORRE BURSATIL,301
02002464111002921000000000S3,87560,PEY PHARMA,MEDICINA DE MEXICALI SA DE CV,Farmacias sin minisúper,6 a 10 personas,AVENIDA,REFORMA,0,1262,SEGUNDA SECCION,21100,"MEXICALI, Mexicali, BAJA CALIFORNIA",6865524943,AREZAGONZALEZ@HOTMAIL.COM,,Fijo,-115.47302968,32.66443153,,,
02004464111012352000000000S5,10491465,PEY-FARMA,PEY-FARMA DISTRIBUIDORA SA DE CV,Farmacias sin minisúper,6 a 10 personas,AVENIDA,AVENIDA DE LA AMISTAD,9049,,FEDERAL,22300,"TIJUANA, Tijuana, BAJA CALIFORNIA",6644096866,,,Fijo,-117.02883329,32.53886825,,,
02004464111005571000000000U9,115724,PHARMA DERMATOLOGIACA,PHARMA DERMATOLOGICA S DE RL DE CV,Farmacias sin minisúper,0 a 5 personas,CALLE,LEONA VICARIO,9211,106,ZONA RIO,22010,"TIJUANA, Tijuana, BAJA CALIFORNIA",,PHARMAPIELXTAL02@GMAIL.COM,,Fijo,-117.02603172,32.53013087,,,
02004464111005201000000000U3,120405,PHARMA EXPRESS,,Farmacias sin minisúper,0 a 5 personas,AVENIDA,MULEGE,1550,0,HERRERA,22534,"TIJUANA, Tijuana, BAJA CALIFORNIA",6643819067,,,Fijo,-117.06476103,32.52610315,,,
02004464111012541000000000U3,10194582,PHARMA HEALTH,,Farmacias sin minisúper,0 a 5 personas,CALLE,DAVID ALFARO SIQUEIROS,2795,302,ZONA RIO,22320,"TIJUANA, Tijuana, BAJA CALIFORNIA",,,,Fijo,-117.01317789,32.52074241,EDIFICIO COMERCIAL Y DE SERVICIOS,EDIFICIO NORMAN,302
02004464111012331000000000M9,10654069,PHARMA PIEL,,Farmacias sin minisúper,0 a 5 personas,CALLE,LEONA VICARIO,1451,28,ZONA RIO,22320,"TIJUANA, Tijuana, BAJA CALIFORNIA",,INFO@BOTANICAL.MX,WWW.BOTANICAL.MX,Fijo,-117.02492924,32.53150889,"HOSPITAL, CENTRO MEDICO O CLINICA",RIO MEDICAL,28
02002464111000711001000000U0,147244,PHARMACY CUERVOS,,Farmacias sin minisúper,0 a 5 personas,AVENIDA,5 DE MAYO A,,,VICENTE GUERRERO ALGODONES,21970,"VICENTE GUERRERO (ALGODONES), Mexicali, BAJA CALIFORNIA",,,,Fijo,-114.72858061,32.71707859,,,
02002464111007281000000000U7,9582939,PHARMACY HAMS,,Farmacias sin minisúper,0 a 5 personas,BOULEVARD,ADOLFO LOPEZ MATEOS,222,,PRIMERA SECCION,21100,"MEXICALI, Mexicali, BAJA CALIFORNIA",6862628433,,,Fijo,-115.49368340,32.66391609,,,
02002464111004763000045827S7,8320441,PHARMACY LAS VEGAS,PROMASTEC SA DE CV,Farmacias sin minisúper,6 a 10 personas,AVENIDA,5 DE MAYO A,224,,VICENTE GUERRERO ALGODONES,21970,"VICENTE GUERRERO (ALGODONES), Mexicali, BAJA CALIFORNIA",,PROMASTEC3@HOTMAIL.COM,,Fijo,-114.72985823,32.71699988,,,
02004464111000101000000000U0,55296,PHARMACY MATRIX,,Farmacias sin minisúper,0 a 5 personas,CALLE,CARRILLO PUERTO TERCERA,8212,0,ZONA CENTRO,22000,"TIJUANA, Tijuana, BAJA CALIFORNIA",,JENNY.SOL@LIVE.COM,,Fijo,-117.03667037,32.53406507,,,
02004464112002381000000000U4,115193,PHARMACY MEDS4U,,Farmacias con minisúper,0 a 5 personas,AVENIDA,REVOLUCION,1191,8,CENTRO,22000,"TIJUANA, Tijuana, BAJA CALIFORNIA",,BESTPHARMACY5TJ@HOTMAIL.COM,,Fijo,-117.03659274,32.53124309,,,
02002464111003371001065833S0,79039,PHOENIX DRUG STORE,CADENA COMERCIAL SABO SA DE CV,Farmacias sin minisúper,6 a 10 personas,AVENIDA,B,0,,VICENTE GUERRERO ALGODONES,21970,"VICENTE GUERRERO (ALGODONES), Mexicali, BAJA CALIFORNIA",,CRISTIANCAMACHO06@HOTMAIL.COM,,Fijo,-114.72843026,32.71586943,,,
02004464111010741000038352S1,9224413,PLAYAS 2,DISTRIBUIDORA DE MIS FARMACIAS SAPI DE CV,Farmacias sin minisúper,0 a 5 personas,AVENIDA,PASEO ENSENADA,1212,,JARDINES PLAYAS DE TIJUANA,22500,"TIJUANA, Tijuana, BAJA CALIFORNIA",,PLAYAS2@DEMISFARMACIAS.COM,WWW.DEMISFARMACIAS.COM,Fijo,-117.11608642,32.52489837,,,
02004464111009642000038352S4,8723426,PLAYAS 3,DISTRIBUIDORA DE MIS FARMACIAS SAPI DE CV,Farmacias sin minisúper,0 a 5 personas,AVENIDA,CALLE DEL CICLN,289,,PLAYAS DE TIJUANA,22506,"TIJUANA, Tijuana, BAJA CALIFORNIA",,PLAYAS3@DEMISFARMACIAS.COM,WWW.DEMISFARMACIAS.COM,Fijo,-117.12029059,32.51149765,,,
02004464111009792000038352S7,8723780,PLAYAS DE TIJUANA,DISTRIBUIDORA DE MIS FARMACIAS SAPI DE CV,Farmacias sin minisúper,0 a 5 personas,AVENIDA,NINGUNO,121,,TERRAZAS,22504,"TIJUANA, Tijuana, BAJA CALIFORNIA",,PLAYAS@DEMISFARMACIAS.COM,WWW.DEMISFARMACIAS.COM,Fijo,-117.11390684,32.53348228,CENTRO Y PLAZA COMERCIAL,CENTRO COMERCIAL DEL MAR,5
02004464111009562000038352S4,8723291,PLAZA BETA,DISTRIBUIDORA DE MIS FARMACIAS SAPI DE CV,Farmacias sin minisúper,0 a 5 personas,BOULEVARD,BOULEVARD EL REFUGIO,2493,3,FLORIDO,22237,"TIJUANA, Tijuana, BAJA CALIFORNIA",,PLAZABETA@DEMISFARMACIAS.COM,WWW.DEMISFARMACIAS.COM,Fijo,-116.86812215,32.46322582,,,
02005464111000892000038352S1,9224701,PLAZA IRIS,DISTRIBUIDORA DE MIS FARMACIAS SAPI DE CV,Farmacias sin minisúper,0 a 5 personas,CARRETERA,LIBRE TIJUANA-ROSARITO,582,,INDEPENDENCIA,22705,"PLAYAS DE ROSARITO, Playas de Rosarito, BAJA CALIFORNIA",,PLAZAIRIS@DEMISFARMACIAS.COM,WWW.DEMISFARMACIAS.COM,Fijo,-117.05154917,32.40151884,CENTRO Y PLAZA COMERCIAL,PLAZA IRIS,4
02002464111003761002000442S2,6417820,PLUS MXLI,GRUPO LIQUIS SA DE CV,Farmacias con minisúper,31 a 50 personas,AVENIDA,LOS PINOS,0,,LOS PINOS,,"MEXICALI, Mexicali, BAJA CALIFORNIA",,FELIX.JUAN@GRUPO-LIQUIS.COM,,Fijo,-115.45127941,32.65337161,,,
02001464111002761000038352S5,8178610,POPULAR 89,DISTRIBUIDORA DE MIS FARMACIAS SAPI DE CV,Farmacias sin minisúper,0 a 5 personas,CALLE,CALAFIA,359,,POPULAR 1989,22812,"ENSENADA, Ensenada, BAJA CALIFORNIA",,POPULAR89@DEMISFARMACIAS.COM,WWW.DEMISFARMACIAS.COM,Fijo,-116.56490371,31.89660633,,,
02004464111010122000038352S4,8737871,PORTICOS,DISTRIBUIDORA DE MIS FARMACIAS SAPI DE CV,Farmacias sin minisúper,0 a 5 personas,BOULEVARD,EL ROSARIO,11050,,PORTICOS DE SAN ANTONIO,22666,"TIJUANA, Tijuana, BAJA CALIFORNIA",,PORTICOS@DEMISFARMACIAS.COM,WWW.DEMISFARMACIAS.COM,Fijo,-117.03619139,32.44103683,CENTRO Y PLAZA COMERCIAL,LA PLACITA,8
02004464111010162000038352S0,8738175,PORTICOS 2,DISTRIBUIDORA DE MIS FARMACIAS SAPI DE CV,Farmacias sin minisúper,0 a 5 personas,BOULEVARD,EL ROSARIO,10739,,PORTICOS DE SAN ANTONIO,22680,"TIJUANA, Tijuana, BAJA CALIFORNIA",,PORTICOS2@DEMISFARMACIAS.COM,WWW.DEMISFARMACIAS.COM,Fijo,-117.04002996,32.43810881,,,
02004464111009651000038352S5,8723427,PORTICOS 3,DISTRIBUIDORA DE MIS FARMACIAS SAPI DE CV,Farmacias sin minisúper,0 a 5 personas,BOULEVARD,EL ROSARIO,11012,,PORTICOS DE SAN ANTONIO,22666,"TIJUANA, Tijuana, BAJA CALIFORNIA",,PORTICOS3@DEMISFARMACIAS.COM,WWW.DEMISFARMACIAS.COM,Fijo,-117.03751783,32.43007204,,,
02004464111009492000038352S4,8723250,PORTICOS 4,DISTRIBUIDORA DE MIS FARMACIAS SAPI DE CV,Farmacias sin minisúper,0 a 5 personas,CALLE,REAL DEL MAR,10450,,FRANCISCO ZARCO,22660,"TIJUANA, Tijuana, BAJA CALIFORNIA",,PORTICOS4@DEMISFARMACIAS.COM,WWW.DEMISFARMACIAS.COM,Fijo,-117.03890289,32.44183295,,,
02004464111009801000038352S6,8723781,POSTAL,DISTRIBUIDORA DE MIS FARMACIAS SAPI DE CV,Farmacias sin minisúper,0 a 5 personas,AVENIDA,CARLOS LAZO,342,,EMPLEADOS POSTAL,22416,"TIJUANA, Tijuana, BAJA CALIFORNIA",,POSTAL@DEMISFARMACIAS.COM,WWW.DEMISFARMACIAS.COM,Fijo,-117.00073972,32.52576538,,,
02004464111009892000038352S5,8723927,PRADO 1,DISTRIBUIDORA DE MIS FARMACIAS SAPI DE CV,Farmacias sin minisúper,0 a 5 personas,AVENIDA,MAGNOLIA,12802,,URBIVILLA DEL PRADO,22123,"TIJUANA, Tijuana, BAJA CALIFORNIA",,PRADO@DEMISFARMACIAS.COM,WWW.DEMISFARMACIAS.COM,Fijo,-116.96713287,32.40604315,,,
02004464111009902000038352S2,8723928,PRADO 2,DISTRIBUIDORA DE MIS FARMACIAS SAPI DE CV,Farmacias sin minisúper,0 a 5 personas,CALLE,PASEO DE LOS VOLCANES,13002,,URBIVILLA DEL PRADO II,22170,"TIJUANA, Tijuana, BAJA CALIFORNIA",,DELPRADO@DEMISFARMACIAS.COM,WWW.DEMISFARMACIAS.COM,Fijo,-116.96512002,32.42510153,,,
02004464111009821000038352S4,8723784,PRESIDENTES,DISTRIBUIDORA DE MIS FARMACIAS SAPI DE CV,Farmacias sin minisúper,0 a 5 personas,AVENIDA,PRESIDENTE MIGUEL ALEM?N VALDS,21602,,INFONAVIT PRESIDENTES,22215,"TIJUANA, Tijuana, BAJA CALIFORNIA",,PRESIDENTES@DEMISFARMACIAS.COM,WWW.DEMISFARMACIAS.COM,Fijo,-116.90572864,32.49232593,,,
02005464111000812000038352S9,8737573,PRIMO TAPIA,DISTRIBUIDORA DE MIS FARMACIAS SAPI DE CV,Farmacias sin minisúper,0 a 5 personas,CARRETERA,TIJUANA A ENSENADA,46,,PRIMO TAPIA,22710,"PRIMO TAPIA, Playas de Rosarito, BAJA CALIFORNIA",,PRIMOTAPIA@DEMISFARMACIAS.COM,WWW.DEMISFARMACIAS.COM,Fijo,-116.92099346,32.22625575,,,
02004464111011081000026883S1,9432621,PROBEMEDIC DISTRIBUCIONES,PROBEMEDIC DISTRIBUCIONES SA DE CV,Farmacias sin minisúper,0 a 5 personas,BOULEVARD,AGUA CALIENTE,11140,,AVIACION,22014,"TIJUANA, Tijuana, BAJA CALIFORNIA",,FLOR.GARCIA@PROBEMEDIC.MX,WWW.PROBEMEDIC.MX,Fijo,-117.00470065,32.51275819,,,
02004464113004442000000000U0,9170353,PRODUCTOS MEDICOS TJ,PRODUCTOS MEDICOS TJ S DE RL DE CV,Farmacias sin minisúper,6 a 10 personas,BOULEVARD,CUCHUMA,8431,,PACIFICO,22643,"TIJUANA, Tijuana, BAJA CALIFORNIA",,PMT.VENTASTIJUANA@GMAIL.COM,PRODUCTOSMEDICOSTJ.COM,Fijo,-116.98711344,32.46898716,,,
02004611151000023001000000U4,141998,PRODUCTOS NATURALES,POR LA SALUD ESTETICA Y FUNCIONAL AC,Farmacias sin minisúper,0 a 5 personas,BOULEVARD,GUSTAVO DIAZ ORDAZ,0,0,LAS HUERTAS 4SEC,22216,"TIJUANA, Tijuana, BAJA CALIFORNIA",,,,Fijo,-116.95762992,32.49353946,,,
02006464111000061000000000U1,9815766,PROFARMACIA,,Farmacias sin minisúper,0 a 5 personas,CALLE,NINGUNO,,,VENUSTIANO CARRANZA,22950,"VENUSTIANO CARRANZA (SANTA MARÍA)                                                                             , San Quintín, BAJA CALIFORNIA",,,,Fijo,-115.89100625,30.40387953,,,
02002464111007021000000000U7,11361862,PROVEEDORA DE INSUMOS MEDICOS KUBERA,,Farmacias sin minisúper,0 a 5 personas,CALLE,NOVENA,1379,,VERONA,21376,"MEXICALI, Mexicali, BAJA CALIFORNIA",,,,Fijo,-115.38205647,32.64471179,,,
02002464111006882000000000U3,10407197,PROVITALD,,Farmacias sin minisúper,6 a 10 personas,CALLE,HACIENDA CARPIZO,0,,HACIENDA DEL BOSQUE,21355,"MEXICALI, Mexicali, BAJA CALIFORNIA",,,,Fijo,-115.47044448,32.59517250,CENTRO Y PLAZA COMERCIAL,CENTRO Y PLAZA COMERCIAL SIN NOMBRE,8B
02004464112003801000000000U0,10001414,REDFAR,,Farmacias con minisúper,0 a 5 personas,AVENIDA,INGENIERO JUAN OJEDA ROBLES Y O DE LA PAZ,590,,BUENAVISTA,22370,"TIJUANA, Tijuana, BAJA CALIFORNIA",,,,Fijo,-116.98545281,32.51995956,,,
02002464111006841000000000U9,9835893,REDFARMACY,,Farmacias sin minisúper,0 a 5 personas,BOULEVARD,ADOLFO LOPEZ MATEOS,,,PRIMERA SECCION,21100,"MEXICALI, Mexicali, BAJA CALIFORNIA",,,,Fijo,-115.49245314,32.66338778,,,
02004464111010111000038352S7,8737870,REFORMA,DISTRIBUIDORA DE MIS FARMACIAS SAPI DE CV,Farmacias sin minisúper,0 a 5 personas,AVENIDA,PASEO REFORMA,8650,,REFORMA,22183,"TIJUANA, Tijuana, BAJA CALIFORNIA",,REFORMA@DEMISFARMACIAS.COM,WWW.DEMISFARMACIAS.COM,Fijo,-116.95464417,32.46800544,,,
02004464111010222000038352S2,8738181,REFORMA 2,DISTRIBUIDORA DE MIS FARMACIAS SAPI DE CV,Farmacias sin minisúper,0 a 5 personas,AVENIDA,PASEO REFORMA,16431,,REFORMA,22180,"TIJUANA, Tijuana, BAJA CALIFORNIA",,REFORMA2@DEMISFARMACIAS.COM,WWW.DEMISFARMACIAS.COM,Fijo,-116.95442374,32.46808616,,,
02004464111010212000038352S3,8738180,REFUGIO II,DISTRIBUIDORA DE MIS FARMACIAS SAPI DE CV,Farmacias sin minisúper,0 a 5 personas,AVENIDA,PASEO DE LOS LAURELES,9164,,EL REFUGIO,22253,"TIJUANA, Tijuana, BAJA CALIFORNIA",,REFUGIO2@DEMISFARMACIAS.COM,WWW.DEMISFARMACIAS.COM,Fijo,-116.82297790,32.46170231,,,
02005464111000822000038352S8,8737719,ROSARITO PARCELA 39,DISTRIBUIDORA DE MIS FARMACIAS SAPI DE CV,Farmacias sin minisúper,0 a 5 personas,CALLE,ARTICULO 27,2087,,PARCELA 39,22710,"PLAYAS DE ROSARITO, Playas de Rosarito, BAJA CALIFORNIA",,ROSARITO2@DEMISFARMACIAS.COM,WWW.DEMISFARMACIAS.COM,Fijo,-117.05405535,32.36552444,,,
02004464111005481000000000U1,121955,SAIN JOHNS FARMACIA,,Farmacias sin minisúper,0 a 5 personas,AVENIDA,REVOLUCION,1692,,ZONA CENTRO,22000,"TIJUANA, Tijuana, BAJA CALIFORNIA",,SAINTJOHNTIJUANA@OUTLOOK.COM,,Fijo,-117.03589125,32.52700225,EDIFICIO COMERCIAL Y DE SERVICIOS,EDIFICIO SAINT JHONS,A
02004464111009912000038352S1,8723929,SALVATIERRA,DISTRIBUIDORA DE MIS FARMACIAS SAPI DE CV,Farmacias sin minisúper,0 a 5 personas,CALLE,PADRE SALVATIERRA,7662,,SALVATIERRA,22607,"TIJUANA, Tijuana, BAJA CALIFORNIA",,SALVATIERRA@DEMISFARMACIAS.COM,WWW.DEMISFARMACIAS.COM,Fijo,-117.06852546,32.48618075,,,
02004464111009922000038352S0,8724009,SALVATIERRA 2,DISTRIBUIDORA DE MIS FARMACIAS SAPI DE CV,Farmacias sin minisúper,0 a 5 personas,AVENIDA,LOS ALAMOS,25271,,SALVATIERRA,22205,"TIJUANA, Tijuana, BAJA CALIFORNIA",,VILLA2@DEMISFARMACIAS.COM,WWW.DEMISFARMACIAS.COM,Fijo,-116.83683691,32.50981744,CENTRO Y PLAZA COMERCIAL,PLAZA PASEO DEL BOSQUE,4
02001464111001241001004146S9,6321759,SAM S NUEVO VALLARTA 6240,FARMACIA DE SIMILARES SA DE CV,Farmacias sin minisúper,6 a 10 personas,CARRETERA,TRANSPENINSULAR (REFORMA),1000,,CHAPULTEPEC II POLIGONO III,22875,"ENSENADA, Ensenada, BAJA CALIFORNIA",,REDESL@PORUNMEXICOMEJOR.COM.MX,WWW.FARMACIASDESIMILARES.COM,Fijo,-116.60293691,31.84109108,,,
02004464111009582000038352S2,8723341,SAN ANTONIO DE LAS MINAS,DISTRIBUIDORA DE MIS FARMACIAS SAPI DE CV,Farmacias sin minisúper,0 a 5 personas,CARRETERA,CIPRES,284,,VILLA DE JUAREZ,22766,"TIJUANA, Tijuana, BAJA CALIFORNIA",,MINAS@DEMISFARMACIAS.COM,WWW.DEMISFARMACIAS.COM,Fijo,-116.88664204,32.46151440,,,
02004464111010181000038352S0,8738177,SAN LUIS,DISTRIBUIDORA DE MIS FARMACIAS SAPI DE CV,Farmacias sin minisúper,0 a 5 personas,AVENIDA,ROBERTO DE LA MADRID,66,,SAN LUIS,22170,"TIJUANA, Tijuana, BAJA CALIFORNIA",,CANON@DEMISFARMACIAS.COM,WWW.DEMISFARMACIAS.COM,Fijo,-116.95394628,32.43133736,,,
02004464111009981000038352S6,8724149,SANCHEZ,DISTRIBUIDORA DE MIS FARMACIAS SAPI DE CV,Farmacias sin minisúper,0 a 5 personas,AVENIDA,GENERAL RODOLFO SANCHEZ TABOADA,14503,,SANCHEZ TABOADA,22185,"TIJUANA, Tijuana, BAJA CALIFORNIA",,SANCHEZ@DEMISFARMACIAS.COM,WWW.DEMISFARMACIAS.COM,Fijo,-116.97203882,32.46676385,,,
02004464111004911001038352M8,126592,SANCHEZ 2,DISTRIBUIDORA DE MIS FARMACIAS SAPI DE CV,Farmacias sin minisúper,0 a 5 personas,AVENIDA,SÁNCHEZ TABOADA,52,,ZONA URBANA RIO,22010,"TIJUANA, Tijuana, BAJA CALIFORNIA",,CONTADOR@DEMISFARMACIAS.COM,WWW.DEMISFARMACIAS.COM,Fijo,-116.96287548,32.46295504,,,2
02004464111010001000038352S0,8724151,SANTA FE,DISTRIBUIDORA DE MIS FARMACIAS SAPI DE CV,Farmacias sin minisúper,0 a 5 personas,BOULEVARD,SANTA FE,6132,,SANTA FE TERCERA SECCION,22654,"TIJUANA, Tijuana, BAJA CALIFORNIA",,SANTAFE@DEMISFARMACIAS.COM,WWW.DEMISFARMACIAS.COM,Fijo,-117.02330440,32.43677014,CENTRO Y PLAZA COMERCIAL,LA PLACITA,NINGUNO
02001464111000791001000000U4,66577,SANTA MARIA FARMACIAS,,Farmacias sin minisúper,0 a 5 personas,CARRETERA,TRANSPENINSULAR REFORMA,100,11,CARLOS PACHECO,22880,"ENSENADA, Ensenada, BAJA CALIFORNIA",6461248383,GAL.CUZ@HOTMAIL.COM,,Fijo,-116.60483940,31.85057756,,,
02004464111011052000000000U2,9337353,SELECT PHARMA,PM PHARMA DISTRIBUCION SA DE CV,Farmacias sin minisúper,0 a 5 personas,AVENIDA,PASEO ENSENADA,2160,,PLAYAS DE TIJUANA SECCION DORADO,22505,"TIJUANA, Tijuana, BAJA CALIFORNIA",,,WWW.SELECTPHARMA.NET,Fijo,-117.11601071,32.51677863,,,
02004561432007681000000000U6,120344,SERVI FARMACIA CENTRO NATURISTA,,Farmacias sin minisúper,0 a 5 personas,AVENIDA,VENUSTIANO CARRANZA,120,0,CASTILLO,22050,"TIJUANA, Tijuana, BAJA CALIFORNIA",6646414563,,,Fijo,-117.05741316,32.53810154,,,
02002433110000021000000000U4,87903,SERVICIOS E INSUMOS INSTITUCIONALES DEL NOROESTE DE MEXICO,SERVICIOS E INSUMOS INSTITUCIONALES DEL NOROESTE DE MEXICO S DE RL DE CV,Farmacias sin minisúper,6 a 10 personas,AVENIDA,TAPICEROS,1635,0,INDUSTRIAL,21010,"MEXICALI, Mexicali, BAJA CALIFORNIA",6865545450,ADMINISTRACION@SIINMEX.COM,,Fijo,-115.46246775,32.65270298,,,
02004464111012701000000000U3,11126895,SERVICIOS FARMACEUTICOS ESPECIALIZADO,,Farmacias sin minisúper,0 a 5 personas,CALLE,PASEO DE LOS HEROES,9211,110,ZONA RIO,22010,"TIJUANA, Tijuana, BAJA CALIFORNIA",,MANUEL.SANCHES@SFE.COM.MX,,Fijo,-117.02543362,32.53022469,EDIFICIO COMERCIAL Y DE SERVICIOS,EDIFICIO XTAL,110
02002464111000661000000000U7,58996,SERVICIOS FARMACEUTICOS INTEGRALES,,Farmacias sin minisúper,0 a 5 personas,CALLE,H,230,0,SEGUNDA SECCION,21100,"MEXICALI, Mexicali, BAJA CALIFORNIA",6865543194,FARMACIASFI@HOTMAIL.COM,,Fijo,-115.46447932,32.66478518,,,
02001464111000291000000000S5,63935,SERVICIOS MEDICOS INTEGRALES,,Farmacias sin minisúper,0 a 5 personas,AVENIDA,PEDRO LOYOLA,237,0,PUNTA BANDA,22897,"ENSENADA, Ensenada, BAJA CALIFORNIA",6461760663,ADMON.DIANAMED@GMAIL.COM,WWW.DIANAMED.COM.MX,Fijo,-116.60454276,31.82760699,,,
02004464111009872000038352S7,8723876,SIGLO XXI,DISTRIBUIDORA DE MIS FARMACIAS SAPI DE CV,Farmacias sin minisúper,0 a 5 personas,BOULEVARD,MANUEL J. CLOUTHIER,15742,,LA JOYA,22115,"TIJUANA, Tijuana, BAJA CALIFORNIA",,SIGLO@DEMISFARMACIAS.COM,WWW.DEMISFARMACIAS.COM,Fijo,-116.94277651,32.48844884,,,
02004464111012491000000000U1,11378997,SIMAS FARMACIA,,Farmacias sin minisúper,0 a 5 personas,CALLE,WAHOO,9736,,FLORIDO,22237,"TIJUANA, Tijuana, BAJA CALIFORNIA",,,,Fijo,-116.87303104,32.46752237,,,
02004464111010891000000000U4,9293293,SIMILAR,,Farmacias sin minisúper,0 a 5 personas,CALLE,RUTA INDEPENDENCIA,10000,0,MARIANO MATAMOROS ,22215,"TIJUANA, Tijuana, BAJA CALIFORNIA",,,,Fijo,-116.89123824,32.49848191,CENTRO Y PLAZA COMERCIAL,COLORADO,
02002464111007721000000291S2,11805088,SIMILAREES HELECHO,GOYOMA SA DE CV,Farmacias sin minisúper,0 a 5 personas,AVENIDA,Helecho,899,,VILLA DEL ROBLE,21395,"MEXICALI, Mexicali, BAJA CALIFORNIA",6644910432,CGEN@GOYOMA.COM,,Fijo,-115.35841112,32.60515987,,,
02002464111001191000000000U4,52664,SIMILARES BAJA,,Farmacias sin minisúper,0 a 5 personas,AVENIDA,MICHOACAN,400,0,BAJA CALIFORNIA,21130,"MEXICALI, Mexicali, BAJA CALIFORNIA",6865527374,,,Fijo,-115.51829869,32.65612011,,,
02002464111007701000000291S4,11827594,SIMILARES BENITO JUAREZ,GOYOMA SA DE CV,Farmacias sin minisúper,0 a 5 personas,BOULEVARD,Benito Juárez,1550,,INSURGENTES OESTE,21280,"MEXICALI, Mexicali, BAJA CALIFORNIA",,CGEN@GOYOMA.COM,,Fijo,-115.44842480,32.63697078,,,
02002464111007661000000291S0,11742848,SIMILARES CASTELLON,GOYOMA SA DE CV,Farmacias sin minisúper,0 a 5 personas,CALZADA,Castellón,1730,,HIDALGO,21389,"MEXICALI, Mexicali, BAJA CALIFORNIA",6644910432,CGEN@GOYOMA.COM,,Fijo,-115.45499893,32.61383625,,,
02002464111007621000000291S4,11804938,SIMILARES CONSTITUCION,GOYOMA SA DE CV,Farmacias sin minisúper,0 a 5 personas,CALLE,Tercera,0,,CIUDAD VICTORIA,21720,"CIUDAD GUADALUPE VICTORIA (KILÓMETRO CUARENTA Y TRES), Mexicali, BAJA CALIFORNIA",6644910432,CGEN@GOYOMA.COM,,Fijo,-115.11161121,32.28973566,,,
02002464111007681000000291S8,11799854,SIMILARES DE LAS AMERICAS,GOYOMA SA DE CV,Farmacias sin minisúper,0 a 5 personas,CALZADA,Calzada de las Américas,703,,COMPUERTAS,21210,"MEXICALI, Mexicali, BAJA CALIFORNIA",,CGEN@GOYOMA.COM,,Fijo,-115.43761364,32.66316829,,,
02002464111007711000000291S3,11797445,SIMILARES DILUVIO,GOYOMA SA DE CV,Farmacias sin minisúper,0 a 5 personas,CALLE,Diluvio,1500,,LA CONDESA,21395,"MEXICALI, Mexicali, BAJA CALIFORNIA",,CGEN@GOYOMA.COM,,Fijo,-115.33485971,32.58920617,,,
02002464111007751000000291S9,11746664,SIMILARES EJIDO PATZCUARO,GOYOMA SA DE CV,Farmacias sin minisúper,0 a 5 personas,CALLE,Ninguno,,,NINGUNO,21706,"EJIDO PÁTZCUARO, Mexicali, BAJA CALIFORNIA",,CGEN@GOYOMA.COM,,Fijo,-115.06481177,32.35064912,,,
02002464111007741000000291S0,11760303,SIMILARES MANUEL GOMEZ MARIN,GOYOMA SA DE CV,Farmacias sin minisúper,0 a 5 personas,CALZADA,Manuel Gómez Morín (Periférico Oriente),286,,LAS HADAS,21216,"MEXICALI, Mexicali, BAJA CALIFORNIA",,CGEN@GOYOMA.COM,,Fijo,-115.41573714,32.66511179,,,
02002464111007731000000291S1,11797843,SIMILARES POBLADO INDIVISO,GOYOMA SA DE CV,Farmacias sin minisúper,0 a 5 personas,AVENIDA,Poblado Indiviso,4101,,VILLAS DEL COLORADO,21395,"MEXICALI, Mexicali, BAJA CALIFORNIA",,CGEN@GOYOMA.COM,,Fijo,-115.36940306,32.59237860,,,
02002464111007651000000291S1,11787782,SIMILARES RIO CULIACAN,GOYOMA SA DE CV,Farmacias sin minisúper,0 a 5 personas,CALLE,Río Culiacán,899,,PROHOGAR,21240,"MEXICALI, Mexicali, BAJA CALIFORNIA",6644910432,CGEN@GOYOMA.COM,,Fijo,-115.43289750,32.65403249,,,
02002464111007671000000291S9,11770570,SIMILARES RIO ELOTA,GOYOMA SA DE CV,Farmacias sin minisúper,0 a 5 personas,CALLE,Río Elota,1099,,BENITO JUAREZ,21250,"MEXICALI, Mexicali, BAJA CALIFORNIA",6644910432,CGEN@GOYOMA.COM,,Fijo,-115.42770944,32.63923177,,,
02002464111007581000000291S0,11839806,SIMILARES TERCERA,GOYOMA SA DE CV,Farmacias sin minisúper,0 a 5 personas,CALLE,Tercera,0,,GUADALUPE VICTORIA,21720,"CIUDAD GUADALUPE VICTORIA (KILÓMETRO CUARENTA Y TRES), Mexicali, BAJA CALIFORNIA",6644910432,CGEN@GOYOMA.COM,,Fijo,-115.10925870,32.28776063,,,
02001464111003391000000291S0,11824244,SIMILARES TRANSPENINSULAR KM142,GOYOMA SA DE CV,Farmacias sin minisúper,0 a 5 personas,CALLE,Ninguno,,,NINGUNO,,"LA PROVIDENCIA                                                                                                , Ensenada, BAJA CALIFORNIA",,CGEN@GOYOMA.COM,,Fijo,-116.15609733,30.96994839,,,
02002464111007691000000291S7,11764754,SIMILARESCALLE I,GOYOMA SA DE CV,Farmacias sin minisúper,0 a 5 personas,CALLE,I,1196,,INDUSTRIAL,21100,"MEXICALI, Mexicali, BAJA CALIFORNIA",6644910432,CGEN@GOYOMA.COM,,Fijo,-115.46154304,32.65821396,,,
02004464111012241000000000U0,10880624,SKIN POINT SHOP,,Farmacias sin minisúper,0 a 5 personas,CALLE,PASEO CENTENARIO TIJUANA,9580,3,ZONA URBANA RIO TIJUANA,22320,"TIJUANA, Tijuana, BAJA CALIFORNIA",,,,Fijo,-117.02372825,32.53662741,CENTRO Y PLAZA COMERCIAL,NEW CITY MEDICAL PLAZA,3
02004464112003921000000000U6,11208435,SPARTAN SUPLEMENTOS ALIMENTICIOS,,Farmacias con minisúper,0 a 5 personas,CALLE,SONORA,0,,CHAPULTEPEC,22020,"TIJUANA, Tijuana, BAJA CALIFORNIA",,,,Fijo,-117.01363031,32.51105731,,,
02002464112002471000000000U7,10567272,SPOT FARMA,,Farmacias con minisúper,0 a 5 personas,CALLE,URBANO VASQUEZ CUARTA,0,2600,GONZALEZ ORTEGA,21397,"MEXICALI, Mexicali, BAJA CALIFORNIA",,SPOT.FARMA@GMAIL.COM,,Fijo,-115.39539517,32.60100595,,,
02002323119002483000000000U8,6940976,STA CRISTINA FARMACIA,,Farmacias con minisúper,0 a 5 personas,CALLE,CATARATAS IGUAZU,213,0,SANTA MONICO,21339,"MEXICALI, Mexicali, BAJA CALIFORNIA",,,,Fijo,-115.48926805,32.62087191,,,
02005464111001081000000000U0,9527719,STAR PHARMACY,,Farmacias sin minisúper,0 a 5 personas,CALLE,NOGAL,0,,MAGISTERIAL,22703,"PLAYAS DE ROSARITO, Playas de Rosarito, BAJA CALIFORNIA",,,,Fijo,-117.05555286,32.33813649,,,
02002461211000433002000442S2,6282700,SUCURSAL 1,GRUPO LIQUIS SA DE CV,Farmacias con minisúper,31 a 50 personas,AVENIDA,FRANCISCO I MADERO,816,,NUEVA,21100,"MEXICALI, Mexicali, BAJA CALIFORNIA",,FELIX.JUAN@GRUPO-LIQUIS.COM,,Fijo,-115.46133454,32.66681814,,,
02001464111003301000000000U9,10847556,SUPER FARMACIA 89,,Farmacias sin minisúper,0 a 5 personas,CALLE,CALAFIA,0,1,POPULAR 1989,22812,"ENSENADA, Ensenada, BAJA CALIFORNIA",6462602702,,,Fijo,-116.56772933,31.89533131,,,
02001464112000701000000000U1,7078401,SUPER FARMACIA 89,,Farmacias con minisúper,6 a 10 personas,CALLE,CALAFIA,329,0,POPULAR 1989,22812,"ENSENADA, Ensenada, BAJA CALIFORNIA",,SUPEFARMACIA89@GMAIL.COM,,Fijo,-116.56753532,31.89539246,,,
02001464111003191000000000U4,11548178,SUPER FARMACIA ALEX,,Farmacias sin minisúper,0 a 5 personas,CALLE,HEBERTO CASTILLO,0,,PUNTA COLONET,22909,"EJIDO MÉXICO (PUNTA COLONET), Ensenada, BAJA CALIFORNIA",,,,Fijo,-116.20849154,31.06327818,,,
02004464111005221000000000U1,114579,SUPER FARMACIA CONTINENTAL,,Farmacias sin minisúper,0 a 5 personas,CALLE,PRIMERA ARTICULO 123,8231,0,ZONA CENTRO,22000,"TIJUANA, Tijuana, BAJA CALIFORNIA",,,,Fijo,-117.03669790,32.53659864,,,
02001464112000281000000000U4,74450,SUPER FARMACIA DE ENSENADA,,Farmacias con minisúper,0 a 5 personas,AVENIDA,BENITO JUAREZ QUINTA,1358,,OBRERA,22830,"ENSENADA, Ensenada, BAJA CALIFORNIA",6461757066,,,Fijo,-116.61559821,31.86374787,CENTRO Y PLAZA COMERCIAL,PLAZA CUAUHTEMOC,22
02001464111000491001000000U1,67372,SUPER FARMACIA DE ENSENADA,,Farmacias sin minisúper,0 a 5 personas,BOULEVARD,LAS DUNAS,151,0,PLAYA ENSENADA,22880,"ENSENADA, Ensenada, BAJA CALIFORNIA",,CONTSUPERFARMA@GMAIL.COM,,Fijo,-116.61437998,31.85164836,,,
02001464111003282000000000U1,10147981,SUPER FARMACIA ENSENADA,,Farmacias sin minisúper,6 a 10 personas,CALLE,DELANTE EL ROSARIO,1292,,COSTA AZUL,22890,"ENSENADA, Ensenada, BAJA CALIFORNIA",,,,Fijo,-116.59504073,31.85235804,,,
02004464111013121000000000U3,11815566,SUPER FARMACIA MARINA,,Farmacias sin minisúper,0 a 5 personas,BOULEVARD,CUCAPAH,20734,,AMPLIACION GUAYCURA,22214,"TIJUANA, Tijuana, BAJA CALIFORNIA",,,,Semifijo,-116.91760015,32.50643967,,,
02001464111001841000000000U2,99173,SUPER FARMACIA MAS X MENOS,,Farmacias sin minisúper,0 a 5 personas,AVENIDA,CARRETERA TRANSPENINSULAR,0,167,MANEADERO,22790,"RODOLFO SÁNCHEZ TABOADA (MANEADERO), Ensenada, BAJA CALIFORNIA",6461419715,HOREN_H1@HOTMAIL.COM,,Fijo,-116.57992743,31.73104551,,,
02001464112000423000000000U2,66429,SUPER FARMACIA Y VIDEO PREMIER,,Farmacias sin minisúper,11 a 30 personas,CALLE,DELANTE EL ROSARIO,875,1,BUENAVENTURA,22785,"ENSENADA, Ensenada, BAJA CALIFORNIA",6461760522,FARMAVIDEOS@HOTMAIL.COM,,Fijo,-116.59838136,31.85202549,,,
02001464111001373001000000U0,156693,SUPER FARMACIAS DE ENSENADA,,Farmacias sin minisúper,6 a 10 personas,CALLE,SEPTIMA,700,0,ZONA CENTRO,22800,"ENSENADA, Ensenada, BAJA CALIFORNIA",,MAXMP07@HOTMAIL.COM,,Fijo,-116.62457491,31.86979492,,,
02001464111000631000000000S2,76455,SUPER FARMACIAS DE ENSENADA,,Farmacias sin minisúper,0 a 5 personas,AVENIDA,REFORMA,1975,0,VALLE VERDE,22839,"ENSENADA, Ensenada, BAJA CALIFORNIA",6461759295,,,Fijo,-116.61098995,31.88242271,,,
02001464111001041000000000U3,76064,SUPER FARMACIAS DE ENSENADA,,Farmacias sin minisúper,0 a 5 personas,CARRETERA,TRANSPENINSULAR REFORMA,226,,ACAPULCO,22890,"ENSENADA, Ensenada, BAJA CALIFORNIA",,VALLEDORADOSFE@GMAIL.COM,,Fijo,-116.60299887,31.84140461,,,
02002464112001461001000000U9,65561,SUPER FARMACIAS DE MEXICALI,,Farmacias con minisúper,0 a 5 personas,BOULEVARD,VENUSTIANO CARRANZA,2001,2001,PASEOS DEL SOL,21399,"MEXICALI, Mexicali, BAJA CALIFORNIA",6865610070,,,Fijo,-115.40517638,32.60919365,,,
02004464112003953000000000U9,11812166,SUPER LEY EXPRESS,CASA LEY SAPI SA DE CV,Farmacias con minisúper,11 a 30 personas,CALLE,HERMENEGILDO GALEANA,0,0,TORRES DEL MATAMOROS,22206,"TIJUANA, Tijuana, BAJA CALIFORNIA",,,,Fijo,-116.87302787,32.48463852,,,
02002464112002551000000000U6,11475848,SUPLEMENTOS,,Farmacias con minisúper,0 a 5 personas,BOULEVARD,LAZARO CARDENAS,0,4,CERRAJERIA,21397,"MEXICALI, Mexicali, BAJA CALIFORNIA",6862885962,,,Fijo,-115.35571753,32.58977440,CENTRO Y PLAZA COMERCIAL,PLAZA PUERTAS DEL SOL,3
02004464111008901000000000U5,8316854,SUPLEMENTOS MX TIJUANA,,Farmacias sin minisúper,0 a 5 personas,AVENIDA,COLOMBIA,9232,0,COLONIA MADERO,22040,"TIJUANA, Tijuana, BAJA CALIFORNIA",,,,Fijo,-117.02546467,32.52041915,CENTRO Y PLAZA COMERCIAL,PLAZA BELLA,13D
02001464112000921000000000U5,9584597,SUPLEMENTOS NV,,Farmacias con minisúper,0 a 5 personas,CALZADA,CORTEZ,2057,,HIDALGO,22880,"ENSENADA, Ensenada, BAJA CALIFORNIA",,EQUIZ23@GMAIL.COM,,Fijo,-116.58639867,31.86304995,,,
02003464111000442000038352S0,8723227,TECATE 4,DISTRIBUIDORA DE MIS FARMACIAS SAPI DE CV,Farmacias sin minisúper,0 a 5 personas,AVENIDA,DOCTOR ARTURO GUERRA F.,2500,,EL PEDREGAL,21460,"TECATE, Tecate, BAJA CALIFORNIA",,TECATE4@DMISFARMACIAS.COM,WWW.DEMISFARMACIAS.COM,Fijo,-116.63194636,32.56660531,,,
02003464111000433000038352S9,8723226,TECATE JUÁREZ,DISTRIBUIDORA DE MIS FARMACIAS SAPI DE CV,Farmacias sin minisúper,0 a 5 personas,CALLE,DOCTOR ARTURO GUERRA F.,10,,BENITO JUAREZ,21480,"TECATE, Tecate, BAJA CALIFORNIA",,TECATE2@DEMISFARMACIAS.COM,WWW.DEMISFARMACIAS.COM,Fijo,-116.63083902,32.55693786,,,
02003464111000461000038352S0,8723229,TECATE MORELOS,DISTRIBUIDORA DE MIS FARMACIAS SAPI DE CV,Farmacias sin minisúper,0 a 5 personas,AVENIDA,MIGUEL HIDALGO Y COSTILLA,1,,ROMERO,21410,"TECATE, Tecate, BAJA CALIFORNIA",,MORELOS@DEMISFARMACIAS.COM,WWW.DEMISFARMACIAS.COM,Fijo,-116.63228186,32.57164689,,,
02003464111000472000038352S7,8723608,TECATE PARAISO,DISTRIBUIDORA DE MIS FARMACIAS SAPI DE CV,Farmacias sin minisúper,0 a 5 personas,AVENIDA,PASEO MORELOS,351,,CENTRO,21400,"TECATE, Tecate, BAJA CALIFORNIA",,PARAISO@DEMISFARMACIAS.COM,WWW.DEMISFARMACIAS.COM,Fijo,-116.62324496,32.57396005,,,
02004464111012381000000000U4,10081194,TFN THE FITNESS NETWORK,,Farmacias sin minisúper,0 a 5 personas,AVENIDA,PASEO A PLAYAS DE TIJUANA,271,9,PLAYAS DE TIJUANA,22504,"TIJUANA, Tijuana, BAJA CALIFORNIA",,,,Fijo,-117.11497503,32.53361486,CENTRO Y PLAZA COMERCIAL,PLAZA TERRAZAS,9
02004464111012831000000000U8,10400840,THE PHARMA-CITY,,Farmacias sin minisúper,0 a 5 personas,AVENIDA,SEPTIMA GALEANA,8141,,ZONA CENTRO,22000,"TIJUANA, Tijuana, BAJA CALIFORNIA",,,,Fijo,-117.03650721,32.52950121,,,
02007464111000051000000000U0,10669816,THIS IS A GOOD FARMACIA,,Farmacias sin minisúper,0 a 5 personas,AVENIDA,MALECON,,,PUERTO DE SAN FELIPE,21858,"SAN FELIPE                                                                                                    , San Felipe, BAJA CALIFORNIA",,,,Fijo,-114.83319064,31.02229520,,,
02004464112003831000000000U7,10786466,TJ FARMA,MERCADERIA JON S DE RL DE CV FARMACIA TIJUANA SA DE CV,Farmacias con minisúper,0 a 5 personas,CALLE,PASEO DE LOS HEROES,,,LAGUNA SALADA,22420,"TIJUANA, Tijuana, BAJA CALIFORNIA",,OPERACION@TJFARMA.COM,,Fijo,-116.96381078,32.50725900,,,
02004464111005981000000000U0,115578,TJ PHARMACY,,Farmacias sin minisúper,0 a 5 personas,AVENIDA,DE LA AMISTAD,8800,103,CENTRO,22320,"TIJUANA, Tijuana, BAJA CALIFORNIA",6643642363,,,Fijo,-117.02999617,32.54053001,CENTRO Y PLAZA COMERCIAL,VIVA TIJUANA,103
02004464111008711000000000S8,8515872,TONIC LIFE,TONIC WORD CENTER SA DE CV,Farmacias sin minisúper,0 a 5 personas,BOULEVARD,GUSTAVO DIAZ ORDAZ,878,,GUILLEN,22106,"TIJUANA, Tijuana, BAJA CALIFORNIA",,,,Fijo,-116.97227599,32.50210845,CENTRO Y PLAZA COMERCIAL,CENTRO Y PLAZA COMERCIAL SIN NOMBRE,878
02002464111004193001000442S7,6797339,TORITO,GRUPO LIQUIS SA DE CV,Farmacias con minisúper,31 a 50 personas,CALLE,MEXICALI SAN LUIS,4147,,DIVISION 2,,"MEXICALI, Mexicali, BAJA CALIFORNIA",,FELIX.JUAN@GRUPO-LIQUIS.COM,,Fijo,-115.35715160,32.57664387,,,
02004464111005121000000000U3,112952,TPDEPOT,THE PHARMA DEPOT,Farmacias sin minisúper,11 a 30 personas,CALLE,LA ESCONDIDA Y O LAGUNA HANSON,1023,,LOS ALAMOS,22110,"TIJUANA, Tijuana, BAJA CALIFORNIA",,VENTAS@THEPHARMADEPOT.COM,,Fijo,-116.95784147,32.50728830,,,
02001464111003031000000000U2,10002859,TU FARMACIA,,Farmacias sin minisúper,0 a 5 personas,CALLE,11,1134,2,ZONA CENTRO,22800,"ENSENADA, Ensenada, BAJA CALIFORNIA",,,,Fijo,-116.62247670,31.87395683,,,
02004464111012531000000000U4,10663930,TU FARMACIA,,Farmacias sin minisúper,0 a 5 personas,AVENIDA,CONSTITUCION,1661,,ZONA CENTRO,22000,"TIJUANA, Tijuana, BAJA CALIFORNIA",6641857687,TUFARMACIATJ@GMAIL.COM,,Fijo,-117.03771840,32.52750558,,,
02002464111002393000000000S1,147158,TURYS PHARMACY,VILLASAN SA DE CV,Farmacias con minisúper,6 a 10 personas,AVENIDA,5 DE MAYO A,0,,VICENTE GUERRERO ALGODONES,21970,"VICENTE GUERRERO (ALGODONES), Mexicali, BAJA CALIFORNIA",,,,Fijo,-114.73011147,32.71698287,,,
02002464113000331000000000U2,68512,UNIVERSAL NATURAL CENTER,,Farmacias con minisúper,0 a 5 personas,BOULEVARD,BENITO JUAREZ,2252,44,EX EJIDO COAHUILA,21090,"MEXICALI, Mexicali, BAJA CALIFORNIA",,FARMACIMULTIDESCUENTOS@HOTMAIL.COM,,Fijo,-115.44316170,32.62276531,,,
02004464111009532000038352S7,8723288,UNIVERSIDAD,DISTRIBUIDORA DE MIS FARMACIAS SAPI DE CV,Farmacias sin minisúper,0 a 5 personas,CALZADA,TECNOLGICO,14487,,OTAY UNIVERSIDAD,22424,"TIJUANA, Tijuana, BAJA CALIFORNIA",,OTAYUNI@DEMISFARMACIAS.COM,WWW.DEMISFARMACIAS.COM,Fijo,-116.96865500,32.52991304,,,
02004464111010152000038352S1,8738076,VALLE DEL RUBI,DISTRIBUIDORA DE MIS FARMACIAS SAPI DE CV,Farmacias sin minisúper,0 a 5 personas,BOULEVARD,BOULEVARD DE LOS FUNDADORES,223,,VALLE DEL RUBI SECCION LOMAS,22626,"TIJUANA, Tijuana, BAJA CALIFORNIA",,RUBI@DEMISFARMACIAS.COM,WWW.DEMISFARMACIAS.COM,Fijo,-117.03208292,32.49633930,,,
02004464111009853000038352S7,8723874,VILLA,DISTRIBUIDORA DE MIS FARMACIAS SAPI DE CV,Farmacias sin minisúper,0 a 5 personas,AVENIDA,ABRAHAM GONZ?LEZ,3294,,FRANCISCO VILLA,22614,"TIJUANA, Tijuana, BAJA CALIFORNIA",,VILLA@DEMISFARMACIAS.COM,WWW.DEMISFARMACIAS.COM,Fijo,-117.05691033,32.51197907,,,
02004464111002881000038352S6,137051,VILLA DEL REAL,DISTRIBUIDORA DE MIS FARMACIAS SAPI DE CV,Farmacias sin minisúper,0 a 5 personas,AVENIDA,CASTELLON BLANCO,5245,,VILLA DEL REAL VII,22205,"TIJUANA, Tijuana, BAJA CALIFORNIA",,REAL@DEMISFARMACIAS.COM,WW.DEMISFARMACIAS.COM,Fijo,-116.85513479,32.50004976,,,
02004464111012811000000000U0,9992162,WISDOM TREE PHARMACEUTICALS,WISDOM TREE PHARMACEUTICALS SA DE CV,Farmacias sin minisúper,0 a 5 personas,BOULEVARD,AGUA CALIENTE,4558,8,AVIACION,22014,"TIJUANA, Tijuana, BAJA CALIFORNIA",,,,Fijo,-117.00607434,32.51281386,EDIFICIO COMERCIAL Y DE SERVICIOS,TORRE COMERCIAL,C1-8
02004464111012821000000000U9,10410935,XANDER FARMACIA,,Farmacias sin minisúper,0 a 5 personas,AVENIDA,5 DE MAYO F,829,,ZONA CENTRO,22000,"TIJUANA, Tijuana, BAJA CALIFORNIA",6649770397,,,Fijo,-117.04495656,32.53127160,,,
02002464112001732000045827M3,8320393,YELLOW PHARMACY,PROMASTEC SA DE CV,Farmacias sin minisúper,0 a 5 personas,AVENIDA,5 DE MAYO A,0,,VICENTE GUERRERO ALGODONES,21970,"VICENTE GUERRERO (ALGODONES), Mexicali, BAJA CALIFORNIA",,,,Fijo,-114.72973283,32.71712323,,,
